Mine Code,Mine Name,Commodity,Type,Owner,Tel,District,Province,Farm,Postal
15126,AC STRAUSS,DIAMONDS ALLUVIAL,OPENCAST,LITTLE ROCK TRADING 6 CC,(053) 963 1081,SCHWEIZER - RENEKE,NORTH-WEST,WILDGOOSELODGE 136 HO,PO BOX 1086 SCHWEIZER-RENEKE 2780
15301,AC STRAUSS,DIAMONDS ALLUVIAL,OPENCAST,AC STRAUSS,(053) 963 2900,SCHWEIZER - RENEKE,NORTH-WEST,MIMOSA 61 HO RE OF 22,PO BOX 309 SCHWEIZER-RENEKE 2780
14545,AFPLATS (PTY) LTD-LEEUWKOP MINE,"PGM, GOLD, COBALT METAL IC, COPPER, NICKEL, SULPHUR",UNDERGROUND,IMPALA PLATINUM HOLDINGS LTD,(014) 569 3802,BRITS,NORTH-WEST,LEEUWKOP 402 JQ,PO BOX 5683 RUSTENBURG 0300
14315,AFRICAN DIAMOND RESOURCES MINING & EXPLORATION,DIAMONDS ALLUVIAL,OPENCAST,AFRICAN DIAMOND RESOURCES MINING & EXPLORATION,(053) 050 0306,SCHWEIZER - RENEKE,NORTH-WEST,"KAMEELKUIL 88 HO PTN 7, KROMPAN 85 HO PTNS 10&11, VAALPOORT 84 HO PTN 6",PO BOX 131 SCHWEIZER RENEKE 2780
10015,AFRISAM (SA) (PTY) LTD,"LIMESTONE, LIME, SHALE FOR CEMENT",OPENCAST,AFRISAM (SA) (PTY) LTD,(018) 633 6000,LICHTENBURG,NORTH-WEST,DUDFIELD 35 IP,PO BOX 600 LICHTENBURG 2740
14538,AMADWALA TRADING 399 CC,DIAMONDS ALLUVIAL,OPENCAST,DRY HARTS DIAMONDS CC,(053) 963 1081,SCHWEIZER - RENEKE,NORTH-WEST,"NOOITGEDACHT 144 HO, ZOETFONTEIN 168 HO",PO BOX 1086 SCHWEIZER-RENEKE 2780
15051,AMBER CASCADES TRADING 3 CC,DIAMONDS ALLUVIAL,OPENCAST,AMBER CASCADES TRADING 3 CC,(053) 963 1108,SCHWEIZER - RENEKE,NORTH-WEST,KAMEELKUIL 88 HO,PO BOX 93 SCHWEIZER-RENEKE 2780
15232,AN DELWERY,DIAMONDS ALLUVIAL,OPENCAST,ARNO VAN ZYL,824 404 431,WOLMARANSSTAD,NORTH-WEST,ROOIBULT,PO BOX 186 WOLMARANSSTAD 2630
15118,ANDRE WARD,SAND NATURAL,OPENCAST,ANDRE WARD,083 228 9909,MADIKWE,NORTH-WEST,ZANDFONTEIN 35 JP,PO BOX 1002 ZEERUST 2865
14701,ANGLO PLATINUM UNION CONCENTRATORS,"PGM, GOLD, COBALT METAL IC, COPPER, NICKEL, SULPHUR",SURFACE,ANGLO PLATINUM LTD,(014) 786 1170,RUSTENBURG,NORTH-WEST,,PO BOX 8208 RUSTENBURG 0300
14303,AP STRYDOM,DIAMONDS ALLUVIAL,OPENCAST,AP STRYDOM,(018) 765 1094,VENTERSDORP,NORTH-WEST,RIETVALLEI 130 IQ,PO BOX 31 RYSMIERBULT 2496
15415,ASSEN IRON ORE,IRON ORE,OPENCAST,MANNGWE MINING (PTY) LTD,(012) 643 0313,BRITS,NORTH-WEST,"SWARTHOEK 10 JQ, BUFFELSPOORT 149 JQ, DORINGKLOOF 141 JQ, ASSEN 140 JQ, ASSEN 161 JQ",POSTNET SUITE 268 PRIVATE BAG X 06 WATERKLOOF  0146
10258,ATLAS CLAY (PTY) LTD,KAOLIN,OPENCAST,DIE AJ FAMIELIE TRUST,(018) 294 4604,POTCHEFSTROOM,NORTH-WEST,HAASKRAAL 460 IQ 54 OF 25,PO BOX 1449 POTCHEFSTROOM 2520
15441,ATMOVOX (PTY) LTD,DIMENSION STONE SLATE,OPENCAST,ATMOVOX (PTY) LTD,763 206 713,RUSTENBURG,NORTH-WEST,ROSMINCOL 442 JP,PO BOX 633 KOSTER 0348
15120,AURICO GOLD RECLAMATION (PTY) LTD,GOLD,SURFACE,AURICO GOLD RECLAMATION (PTY) LTD,(018) 468 4098,KLERKSDORP,NORTH-WEST,NOOITGEDACHT 3 & 7 REM,PO BOX 1764 KLERKSDORP 2570
15458,B & E INTERNATIONAL - LONDON,AGGREGATE,OPERATING,LIZIBUZZ (PTY) LTD,(053) 963 1081,SCHWEIZER - RENEKE,NORTH-WEST,LONDON 112 HO,PO BOX 1086 SCHWEIZER-RENEKE 2780
10907,B & G SLATE MINING T/A BOKWENA SLATE,DIMENSION STONE SLATE,OPENCAST,B & G SLATE MINING,842 527 011,MADIKWE,NORTH-WEST,BROEKMANSFONTEIN 294 JP,PO BOX 190 GROOT MARICO 2850
13199,BAFOKENG RASIMONE PLATINUM MINE,"PGM, GOLD, COBALT METAL IC, COPPER, NICKEL, SULPHUR","OPENCAST, UNDERGROUND",ROYAL BAFOKENG RESOURCES (67%) & RUSTENBURG PLATINUM MINES (33%),(014) 573 1497,RUSTENBURG,NORTH-WEST,BOSCHKOPPIE 104 JQ 1 2 & REM,PRIVATE BAG X82085 RUSTENBURG 0300
14875,BAKUBUNG MINERALS (PTY) LTD,PGM,UNDERGROUND,WESIZWE PLATINUM LTD,(011) 994 4600,RUSTENBURG,NORTH-WEST,FRISCHGEWAAGD 96 JQ,PRIVATE BAG X16 NORTHLANDS 2116
10401,BA-MOGOPA GRANITE (PTY) LTD,DIMENSION STONE GRANITE,OPENCAST,KELGRAN INVESTMENTS (PTY) LTD,(012) 250 1970,GA-RANKUWA,NORTH-WEST,"HARTEBEESPOORT 410 JQ, LEEUKOP 402 JQ, LOSPERFONTEIN 405 JQ, WOLWEKRAAL 408 JQ, WONDERKOP 400 JQ, PEARL 401 JQ, BERSEBA 397 JQ, BOSPOORT 399 JQ, KAREEPOORT 407 JQ",PO BOX 616 BRITS 0250
14823,BAREND BOUWER,DIAMONDS ALLUVIAL,OPENCAST,PJC PRETORIUS EN SEUN BOERDERY (PTY) LTD,(053) 963 1081,CHRISTIANA,NORTH-WEST,"WELGEDAAN 292 HO, VUURFONTEIN 117 HO, SANDRINGHAN 118 HO",PO BOX 1086 SCHWEIZER-RENEKE 2780
12158,BARPLATS MINES LTD,"PGM, GOLD, COBALT METAL IC, COPPER, NICKEL, SULPHUR",UNDERGROUND,EASTERN PLATINUM LTD,(012) 381 1800,BRITS,NORTH-WEST,"BOKFONTEIN 448 JQ, DE KROON 442 JQ, DE KROON 444 JQ, ELANDSFONTEIN 440 JQ, HARTEBEESTFONTEIN 446 JQ, KROKODILDRIFT 446 JQ, ROODEKOPJES OR SWARTKOPPIES 427 JQ, ROODEKOPPIES 417 JQ, ZANDFONTEIN 447 JQ",PO BOX 513 BRITS 0250
15210,BASSFOUR 2782,DIAMONDS ALLUVIAL,OPENCAST,SAREL POTGIETER,083 540 2589,CHRISTIANA,NORTH-WEST,"ZOUTPAN 301 HO, WITGATBOOM 317 HO",PO BOX 627 CHRISTIANA 2680
14604,BATHOPELE MINE,"PGM, GOLD, CHROME ORE, COBALT METAL IC, COPPER, NICKEL, SULPHUR",UNDERGROUND,SIBANYE PLATINUM,(014) 598 3638,RUSTENBURG,NORTH-WEST,WATERVAL 307 JG,PO BOX 1 BLESKOP 0292
14269,BATTON MINING,DIAMONDS ALLUVIAL,OPENCAST,PARADISE CREEK INVESTMENT (PTY) LTD,(018) 264 4705,VENTERSDORP,NORTH-WEST,ROODEPAN 180 IP 7 & RE,PO BOX 711 VENTERSDORP 2710
14738,BAY CITY TRADING 249 CC,DIAMONDS ALLUVIAL,OPENCAST,BAY CITY TRADING 249 CC,(053) 963 1081,WOLMARANSSTAD,NORTH-WEST,"SYFERGAT 204 HO VARIOUS, WELGEVONDEN 203 HO",PO BOX 1086 SCHWEIZER-RENEKE 2780
10218,BENADEPLAAS LIMESTONE MINE,"LIMESTONE, LIME",OPENCAST,MATSOPA MINERALS,(011) 878 0343,MADIKWE,NORTH-WEST,"BENADEPLAAS 93 JO E F & G, BENADEPLAAS 98 JQ 5 6 & RE 7",PO BOX 14052 WADEVILLE 1422
15444,BENDER DELWERYE,DIAMONDS ALLUVIAL,OPENCAST,GM BENDER,(018) 596 1804,CHRISTIANA,NORTH-WEST,KATDOORNKRAAL 249 HO VARIOUS,PO BOX 301 WOLMARANSSTAD 2630
15443,BLIGNAUT DELWERY,DIAMONDS ALLUVIAL,OPENCAST,EPS BLIGNAUT,732 696 713,WOLMARANSSTAD,NORTH-WEST,WOLMARANSSTAD TOWN AND TOWNLANDS 184 HO 2,PO BOX 477 OTTOSDAL 2610
14971,BLINK KLIP MINING (PTY) LTD - ZEVENFONTEIN,DIAMONDS ALLUVIAL,OPENCAST,ALEXANDER LOMBARD,(018) 596 2488,CHRISTIANA,NORTH-WEST,ZEVENFONTEIN 240 HO 11,PO BOX 41 WOLMARANSSTAD 2630
15423,BLINKKLIP MINING (PTY) LTD - TWEEBOSCH,DIAMONDS ALLUVIAL,OPENCAST,ALEXANDER LOMBARD,(018) 596 2488,DELAREYVILLE,NORTH-WEST,TWEEBOSCH 318 IO 9,PO BOX 41 WOLMARANSSTAD 2630
14399,BLINKWATER SANDWERKE,SAND NATURAL,OPENCAST,JJC BUITENDAG,082 928 8457,RUSTENBURG,NORTH-WEST,WOODSTOCK 397 JP 19,PO BOX 109 SWARTRUGGENS 2835
13626,BLUE GUM DIAMONDS (PTY) LTD,DIAMONDS ALLUVIAL,OPENCAST,ROCKWELL DIAMONDS NORTH WEST (PTY) LTD,083 601 1658,VENTERSDORP,NORTH-WEST,"HARTEBEESTLAAGTE 146 IP, NOOITGEDACHT 131 IP 8, ZWARTRAND 145 IP 1 2 3 & RE",PO BOX 20576 NOORDBRUG 2522
15411,BOELA HAASBROEK,DIAMONDS ALLUVIAL,OPENCAST,GLOMIX 109 CC,(053) 963 1081,WOLMARANSSTAD,NORTH-WEST,DOORNHOEK 165 HO VARIUS,PO BOX 1086 SCHWEIZER-RENEKE 2780
13962,BOLTUMELO DIAMONDS (PTY) LTD,DIAMONDS ALLUVIAL,OPENCAST,SA GEMSTONE (PTY) LTD,082 994 4444,RUSTENBURG,NORTH-WEST,KRUGERSDAL 9 IQ,PO BOX 2288 PARKLANDS 2121
14965,BONACORD GRANITE QUARRY (PTY) LTD,DIMENSION STONE GRANITE,OPENCAST,EAGLE GRANITE (PTY) LTD,(011) 803 3910,BRITS,NORTH-WEST,HOEKFONTEIN 432 5Q,PO BOX 6194 RIVONIA 2128
13943,BOSELE DIAMOND CONCESSIONAIRS CC,DIAMONDS ALLUVIAL,OPENCAST,BOSELE DIAMOND CONCESSIONAIRS CC,722 215 693,MMABATHO,NORTH-WEST,MOLOPO MARIBA 308 JO,2263 MZILIKAZI ST MOHLAKENG 1759
14885,BOSHOEK,CHROME ORE,OPENCAST,GLENCORE MERAFE VENTURE,(014) 597 8047,RUSTENBURG,NORTH-WEST,BOSHOEK 301,PO BOX 310 KROONDAL 0350
14220,BOTHA & DU TOIT BOERDERY (PTY) LTD,DIAMONDS ALLUVIAL,OPENCAST,SONOP DIAMOND MINING,(018) 468 5355,WOLMARANSSTAD,NORTH-WEST,KATDOORNKRAAL 249 HO,PO BOX 6499 FLAMWOOD 2572
14331,BRANDHOEK PROTOKOL 673/2009,DIAMONDS ALLUVIAL,OPENCAST,JD VAN HEERDEN,(018) 293 3875,WOLMARANSSTAD,NORTH-WEST,BRANDHOEK 78 HP 35 OF 34,PO BOX 6754 BAILLIE PARK POTCHEFSTROOM  2526
14069,BRITTENMYN,"LIMESTONE, LIME",OPENCAST,OOS-TVL KALKVERSKAFFERS (EDMS) BPK,(018) 464 7820,CHRISTIANA,NORTH-WEST,"KAREEPAN 298 HQ, KAREEPAN 300 HQ, KAREEPAN 301 HQ",PO BOX 31 KLERKSDORP 2570
15326,BRUWER GRANITE CC,DIMENSION STONE GRANITE,OPENCAST,BRUWER GRANITE CC,083 678 7579,BRITS,NORTH-WEST,"HARTEBEESTPOORT B 410 JQ 969, KAREEPOORT 969",PO BOX 215 SONOP 0258
14130,BUFFELSFONTEIN GM,"GOLD, SILVER",UNDERGROUND,VILLAGE MAIN REEF,(018) 473 7303,KLERKSDORP,NORTH-WEST,"HARTEBEESTFONTEIN 422 IP, GOEDGENOEG 433 IP",PRIVATE BAG X800 STILFONTEIN 2550
12583,BUHRMANSDRIF,"LIMESTONE, LIME",OPENCAST,OOS-TVL KALKVERSKAFFERS (EDMS) BPK,(018) 464 7820,MADIKWE,NORTH-WEST,"BENADEPLAATS 93 JP, WAGENDRIFT 100 JO",PO BOX 31 KLERKSDORP 2570
13928,BURGER EN ROOS DELWERY,DIAMONDS ALLUVIAL,OPENCAST,MANYEDI DIAMOND MINING,(053) 963 1081,WOLMARANSSTAD,NORTH-WEST,VLAKKRAAL 353 HO,PO BOX 1086 SCHWEIZER-RENEKE 2780
13942,BUSTIQUE 0160 (PTY) LTD,DIAMONDS ALLUVIAL,OPENCAST,BUSTIQUE 0160 (PTY) LTD,(018) 011 1212,VENTERSDORP,NORTH-WEST,NOOITGEDACHT 131 IP,PO BOX 568 VENTERSDORP 2710
13897,CANDERO MINING & CONSULTANTS CC,"AGGREGATE, SAND NATURAL",OPENCAST,CANDERO MINING & CONSULTANTS CC,(011) 884 3805,KLERKSDORP,NORTH-WEST,"NOOITGEDACHT 434 IP, STRATHMORE 436 IP",PO BOX 785565 SANDTON 2146
14608,CARE AND MAINTENANCE OPERATIONS,"PGM, GOLD, COBALT METAL IC, COPPER, NICKEL, SULPHUR",UNDERGROUND,ANGLO PLATINUM RUSTENBURG,(014) 598 1106,RUSTENBURG,NORTH-WEST,FRANK SHAFTS 1 & 2,PO BOX 1 BLESKOP 0292
15208,CDB DELWERY CC,DIAMONDS ALLUVIAL,OPENCAST,CCD BOTHA,082 895 3516,WOLMARANSSTAD,NORTH-WEST,BOSCHPLAATS 149 HO,PO BOX 6499 FLAMWWOOD 2572
15260,CH BADENHORST DELWERY,DIAMONDS ALLUVIAL,OPENCAST,CASPER BADENHORST,(053) 433 2030,CHRISTIANA,NORTH-WEST,ZWARTLAAGTE 345 HO,PO BOX 746 BLOEMHOF 2660
14949,CHARLES BOGALE - KLIPKUIL,DIAMONDS ALLUVIAL,OPENCAST,CHARLES BOGALE,732 747 522,LICHTENBURG,NORTH-WEST,KLIPKUIL 352 JP,2318 SITHOLE STREET MOHLAKENE LOCATION RANDFONTEIN  1759
14135,CHARLES MULLER DELWERY,DIAMONDS ALLUVIAL,OPENCAST,IVORY SUN TRADING 2 (PTY) LTD,(053) 963 1081,SCHWEIZER - RENEKE,NORTH-WEST,BAUCHANSVILLE 61 IQ,PO BOX 1086 SCHWEIZER-RENEKE 2780
13172,CHINA AFRICAN PRECIOUS METALS (PTY) LTD,"GOLD, SILVER",UNDERGROUND,PENG XING SHANGHAI & BEK HOLDINGS (PTY) LTD,(018) 473 7900,KLERKSDORP,NORTH-WEST,"GOEDGENOEG 433 IP, KANANA 426 IP, MODDERFONTEIN 440 IP, NOOITGEDAGHT 434 IP, ORKNEY 437 IP, VAALKOP 439 IP, WITKOP 438 IP",PRIVATE BAG X10 ORKNEY 2620
14945,CHRISJAN DIAMANTE CC,DIAMONDS ALLUVIAL,OPENCAST,CHRISJAN DIAMANTE CC,(018) 632 2661,LICHTENBURG,NORTH-WEST,GOEDVOORUITZICHT 120 IP,PO BOX 1287 LICHTENBURG 2740
15420,CHRISMAR DELWERY,DIAMONDS ALLUVIAL,OPENCAST,RAYMOND JOHNSTONE,(053) 963 1081,CHRISTIANA,NORTH-WEST,GELUK 42 HN RE,PO BOX 1086 SCHWEIZER RENEKE 2780
13904,CINLO CC,DIAMONDS ALLUVIAL,OPENCAST,CINLO CC,(053) 963 1108,SCHWEIZER - RENEKE,NORTH-WEST,KOPPIE ALLEEN 221 HO,PO BOX 93 SCHWEIZER-RENEKE 2780
15239,CNC CRUSHERS (PTY) LTD,"AGGREGATE, SAND NATURAL",SURFACE,CED CROUS,(018) 484 1579,KLERKSDORP,NORTH-WEST,HARTEBEESTFONTEIN SHAFT 4 422 IP,PO BOX 1053 STILFONTEIN 2550
15241,CNC CRUSHERS ROADSTONE,"AGGREGATE, SAND NATURAL",OPENCAST,CARL CROUS,(018) 484 1577,KLERKSDORP,NORTH-WEST,"HARTEBEESTFONTEIN SHAFT 5 422 IP, GOEDGENOEG 433 IP",PO BOX 1054 STILFONTEIN 2550
15141,COPPER EAGLE TRADING,DIAMONDS ALLUVIAL,OPENCAST,COPPER EAGLE TRADING,082 852 9041,DELAREYVILLE,NORTH-WEST,ZANDVALLEI 301 IO 6,PO BOX 5 BIESIESVLEI 2755
15157,COPPER SLATE (PTY) LTD,DIMENSION STONE SLATE,OPENCAST,MICHAEL TULLY,082 466 2121,RUSTENBURG,NORTH-WEST,HARTEBEESFONTEIN 450 JP,PO BOX 230 SWARTRUGGENS 2835
14361,CORLINE 117,DIAMONDS ALLUVIAL,OPENCAST,JODEO FOUR (PTY) LTD,(053) 963 1081,SCHWEIZER - RENEKE,NORTH-WEST,DIAMANDFONTEIN 220 HO,PO BOX 1086 SCHWEIZER RENEKE 2780
14806,CORLINE 117 CC,DIAMONDS ALLUVIAL,OPENCAST,TRUSTEES FO THE FERDINANT PIETERSE TRUST,(053) 963 1081,SCHWEIZER - RENEKE,NORTH-WEST,PIENAARSFONTEIN 113 HO,PO BOX 1086 SCHWEIZER-RENEKE 2780
14984,CORNELIUS JACQUES SWART,DIAMONDS ALLUVIAL,OPENCAST,JACQUES SWART,082 413 9316,WOLMARANSSTAD,NORTH-WEST,VAALBANK 355 HO 12,PO BOX 6499 FLAMWOOD 2570
11432,COROBRIK - BADENHORST QUARRY,"CLAY BRICKMAKING, SHALE BRICKMAKING","OPENCAST, SURFACE",COROBRIK (PTY) LTD,(011) 871 8600,POTCHEFSTROOM,NORTH-WEST,RHENOSTERFONTEIN 559 IQ PTN OF REM,PO BOX 49 GERMISTON 1400
13287,COROBRIK - GOUDKOP QUARRY,"CLAY BRICKMAKING, SHALE BRICKMAKING",SURFACE,COROBRIK (PTY) LTD,(011) 871 8600,KLERKSDORP,NORTH-WEST,FARM 424 IP REM OF 1,C/O COROBRIK (PTY) LTD PO BOX 201367 DURBAN NORTH  4016
12270,COROBRIK - KOPANO QUARRY,"CLAY BRICKMAKING, SHALE BRICKMAKING","OPENCAST, SURFACE",COROBRIK (PTY) LTD,(011) 871 8600,KLERKSDORP,NORTH-WEST,HARTEBEESFONTEIN 422 IP 422 IP 2 OF 1,C/O COROBRIK (PTY) LTD PO BOX 201367 DURBAN NORTH  4016
13289,COROBRIK - MYBURGH QUARRY,"CLAY BRICKMAKING, SHALE BRICKMAKING","OPENCAST, SURFACE",COROBRIK (PTY) LTD,(011) 871 8600,KLERKSDORP,NORTH-WEST,HARTEBEESFONTEIN 422 IP 63 OF 13,C/O COROBRIK (PTY) LTD PO BOX 201367 DURBAN NORTH  4016
13280,COROBRIK - VILJOEN QUARRY,"CLAY BRICKMAKING, SHALE BRICKMAKING","OPENCAST, SURFACE",COROBRIK (PTY) LTD,(011) 871 8600,KLERKSDORP,NORTH-WEST,HARTEBEESFONTEIN 422 IP REM OF 26,C/O COROBRIK (PTY) LTD PO BOX 201367 DURBAN NORTH  4016
14506,COUNTER POINT TRADING 403 (PTY) LTD - LEEUWBOSCH,DIAMONDS ALLUVIAL,OPENCAST,COUNTER POINT TRADING 403 (PTY) LTD,(053) 963 1081,SCHWEIZER - RENEKE,NORTH-WEST,LEEUWBOSCH 236 HO RE OF 1,PO BOX 1086 SCHWEIZER-RENEKE 2780
13158,CRYSTAL BLACK GRANITE (PTY) LTD,DIMENSION STONE GRANITE,OPENCAST,NYALA GRANITE MINING (PTY) LTD,(012) 252 3120,BRITS,NORTH-WEST,"HARTEBEESPOORT 410 JQ, 410 JQ VARIOUS",PO BOX 3298 BRITS 0250
15439,CS UYS,DIAMONDS ALLUVIAL,OPENCAST,VAALHARTS & VREDE BOERDERY CC,(053) 963 1081,CHRISTIANA,NORTH-WEST,CATHARINA 44 HN,PO BOX 1086 SCHWEIZER-RENEKE 2780
15306,DAISY DIAMONDS,DIAMONDS ALLUVIAL,OPENCAST,MARIUS NEL,795 274 197,WOLMARANSSTAD,NORTH-WEST,"RIETKUIL 309 IP, DOORNFONTEIN 313 IP",PO BOX 306 HARTBEESFONTEIN 2600
14281,DAL UYS,DIAMONDS ALLUVIAL,OPENCAST,DAL UYS,082 895 3516,WOLMARANSSTAD,NORTH-WEST,RIETKUIL 155 HO,PO BOX 6499 FLAMWOOD 2572
14554,DAL UYS,DIAMONDS ALLUVIAL,OPENCAST,DAL UYS,082 895 3516,WOLMARANSSTAD,NORTH-WEST,ROOIBULT 182 HO,PO BOX 6499 FLAMWOOD 2572
15172,DAL UYS,DIAMONDS ALLUVIAL,OPENCAST,DAL UYS,082 895 3516,WOLMARANSSTAD,NORTH-WEST,HOLLOWAYS RUST 199 HO,PO BOX 6499 FLAMWOOD 2572
15292,DANIE BOTES DELWERY,DIAMONDS ALLUVIAL,OPENCAST,MERICODE (PTY) LTD,071 051 3885,WOLMARANSSTAD,NORTH-WEST,VLAKFONTEIN 37 HP 3,PO BOX 458 WOLMARANSSTAD 2630
14443,DANKIE OUPA DELWERY,DIAMONDS ALLUVIAL,OPENCAST,DANKIE OUPA DELWERY CC,(053) 963 1081,SCHWEIZER - RENEKE,NORTH-WEST,"BOSCHPLAATS 149 HO, VOGELSTRUISKUIL 400 HO, WELVERDIENT 151 HO",PO BOX 1086 SCHWEIZER-RENEKE 2780
15429,DANOHER KLIPFONTEIN QUARRY,"AGGREGATE, SAND NATURAL",OPENCAST,TAU PELE CONSTRUCTION (PTY) LTD,824 508 957,WOLMARANSSTAD,NORTH-WEST,KLIPFONTEIN 311 IP RE,25 BLOEMENDAL BLOEMFONTEIN 9301
13984,DESITELF 18 T/A GZ MINING,DIAMONDS ALLUVIAL,OPENCAST,BICCY ARNOLDI,(011) 792 1006,CHRISTIANA,NORTH-WEST,CATHARINA 44 HN,PO BOX 618 FOUNTAINBLEAU 2032
15397,DIGBY PLAIN MINERAL RESOURCES (PTY) LTD,FERROUS METALS ORE,OPENCAST,MI CHIBOO FARMING II (PTY) LTD,(053) 963 1081,VENTERSDORP,NORTH-WEST,DIGBY PLAIN 63 IQ,PO BOX 1086 SCHWEIZER-RENEKE 2780
15305,DIKALONE QUARRY,DIMENSION STONE GRANITE,OPENCAST,BAGOPA GRANITE (PTY) LTD,(012) 252 0120,RUSTENBURG,NORTH-WEST,LEEUWKOP 402 JQ,PO BOX 1 BETHANIE 0270
14658,DIUTLWILENG LAZARUS MOKOENA,DIAMONDS ALLUVIAL,OPENCAST,DIUTLWILENG LAZARUS MOKOENA,731 692 868,MMABATHO,NORTH-WEST,MOLOPO RATSHIDI FARM 302 JO,PO BOX 754 LONELY PARK MAFIKENG  8670
15374,DJG DE BEER,DIAMONDS ALLUVIAL,OPENCAST,PB LAAS,836 268 885,CHRISTIANA,NORTH-WEST,ZWARTLAAGTE 345 HO,PO BOX 193 BLOEMHOF 2660
14632,DJJ VAN ZYL,DIAMONDS ALLUVIAL,OPENCAST,DJJ VAN ZYL,836 323 387,CHRISTIANA,NORTH-WEST,"ZWARTLAAGTE 345 HO RE, KAALPAN 337 HO 7",PO BOX 410 GARSFONTEIN 0042
13816,DLA INVESTMENT SA (PTY) LTD,DIMENSION STONE GRANITE,OPENCAST,CELETTE SA (PTY) LTD,(012) 256 4506,BRITS,NORTH-WEST,HARTEBEESPOORT B 410 JQ VARIOUS,PO BOX 1742 BRITS 0250
14627,DOORNHOEK DELWERY,DIAMONDS ALLUVIAL,OPENCAST,DOORNHOEK 777 GLAUDINA (PTY) LTD,(053) 963 1081,SCHWEIZER - RENEKE,NORTH-WEST,DOORNHOEK 165 HO RE OF 42,PO BOX 1081 SCHWEIZER-RENEKE 2780
13871,DS SNYDERS,DIAMONDS ALLUVIAL,OPENCAST,DS SNYDERS,(053) 963 1081,CHRISTIANA,NORTH-WEST,OLIEVENFONTEIN 114 HO,PO BOX 1086 SCHWEIZER-RENEKE 2780
15199,DU PREEZ DELWERY,DIAMONDS ALLUVIAL,OPENCAST,DU PREEZ GERHARD,832 359 383,WOLMARANSSTAD,NORTH-WEST,PALMIETFONTEIN,PO BOX 914 WOLMARANSSTAD 2630
14528,DUMELA DIAMONDS,DIAMONDS ALLUVIAL,OPENCAST,DUMELA DIAMONDS,(053) 963 1108,CHRISTIANA,NORTH-WEST,BLESBOK 143 HO,PO BOX 93 SCHWEIZER-RENEKE 2780
15362,DZN DIAMANTE (EDMS) BPK,DIAMONDS ALLUVIAL,OPENCAST,HP VAN HEERDEN,825 702 602,CHRISTIANA,NORTH-WEST,"STERKFONTEIN 155 IP 10 & 14, SCHOONGEZICHT 102 HO 2 & 5",13TH AVENUE 27 LICHTENBURG 2740
14142,EDMAC MINING & CONSTRUCTION,DIAMONDS ALLUVIAL,OPENCAST,EDMAC MINING & CONSTRUCTION (PTY) LTD,083 652 4606,WOLMARANSSTAD,NORTH-WEST,ZOUTPAN 212 HO,PO BOX  767 WOLMARANSSTAD 2630
14427,ELAND PLATINUM MINE (PTY) LTD,"PGM, GOLD, COBALT METAL IC, COPPER, NICKEL, SULPHUR",OPENCAST,GLENCORE,(014) 590 2422,BRITS,NORTH-WEST,ELANDSFONTEIN 440 JQ,PRIVATE BAG X82288 RUSTENBURG 0300
13114,ELANDSFONTEIN,DIMENSION STONE GRANITE,OPENCAST,KUDU GRANITE - BRITS DIVISION,(012) 252 7798,BRITS,NORTH-WEST,ELANDSFONTEIN 440 JQ 52 OF 15,PO BOX 4664 BRITS 0250
15355,ELEAZAR GOLD MINE,GOLD,OPENCAST,PCD,(013) 243 1075,KLERKSDORP,NORTH-WEST,ELEAZAR 377 IP 1 2 & 7,692 TSOLO STREET KHUMA STILLFONTEIN  2550
15432,ELIZABETH MP 25/2017,DIAMONDS ALLUVIAL,OPENCAST,DODIAM DIAMANTE CC,(018) 293 3875,LICHTENBURG,NORTH-WEST,ELIZABETH 357 JP PTN OF RE,PO BOX 6754 BAILLIEPARK 2526
14902,ELIZABETH PROTOKOL 352/2006,DIAMONDS ALLUVIAL,OPENCAST,IJ ROODT,(018) 293 3875,LICHTENBURG,NORTH-WEST,ELIZABETH 357 JP RE,PO BOX 6754 BAILIE PARK POTCHEFSTROOM  2526
14871,EMANUEL MULDER,DIAMONDS ALLUVIAL,OPENCAST,EMANUEL MULDER,(053) 963 1081,SCHWEIZER - RENEKE,NORTH-WEST,"MAHEMPANNEN 217 HO, GRASPAN 218 HO",PO BOX 1086 SCHWEIZER-RENEKE 2780
14393,ERNSCOR GRANITE MINING INVESTMENTS CC,DIMENSION STONE GRANITE,OPENCAST,ERNSCOR GRANITE MINING INVESTMENTS CC,(012) 252 0693,BRITS,NORTH-WEST,HARTEBEESPOORT B 410 JQ,PO BOX 1541 BRITS 0250
14185,ETRUSCAN - HARTBEESLAAGTE,DIAMONDS ALLUVIAL,OPENCAST,ETRUSCAN DIAMONDS (PTY) LTD,(018) 264 4627,VENTERSDORP,NORTH-WEST,"HARTBEESLAAGTE 146 IP, THE FARM EXCL DEPROCLAIMED AREA",PO BOX 46 VENTERSDORP 2710
10650,EVRAZ VAMETCO ALLOYS (PTY) LTD,"VANADIUM ALLOYS, VANADIUM CHEMICALS",SURFACE,STRATEGIC MINERALS CORP,(012) 318 3202,GA-RANKUWA,NORTH-WEST,"KROKODILKRAAL 426 JQ, UITVALGROND 431 JQ",PO BOX 595 BRITS 0250
11938,EXPLO CLAY,"CLAY BRICKMAKING, SHALE BRICKMAKING",OPENCAST,BERT'S BRICKS (PTY) LTD,(018) 292 1615,POTCHEFSTROOM,NORTH-WEST,"HARPINGTON PLOT 100, TOWN & TOWNLANDS 435 IQ 472",PO BOX 588 POTCHEFSTROOM 2520
13967,EXTRA DIMENSIONS 1158 (PTY) LTD,DIMENSION STONE GRANITE,OPENCAST,EAGLE VALLEY GRANITE,(012) 256 5361,BRITS,NORTH-WEST,HARTEBEESTPOORT 410 JQ 1143,PO BOX 2230 BRITS 0250
15412,F & J DELWERYE,DIAMONDS ALLUVIAL,OPENCAST,F & J DELWERYE,827 705 834,VENTERSDORP,NORTH-WEST,UITKYK 184 IP 19,PO BOX 4 RYSMIERBULT 2496
15413,FA GERBER - BARKHUIZEN DELWERY,DIAMONDS ALLUVIAL,OPENCAST,FA GERBER,083 285 2470,CHRISTIANA,NORTH-WEST,"WELTEVREDEN 268 HO, PANFONTEIN 270 HO",PO BOX 64 AMALIA 2786
14123,FC PRETORIUS,DIAMONDS ALLUVIAL,OPENCAST,FC PRETORIUS,(018) 297 3921,WOLMARANSSTAD,NORTH-WEST,RUSTKRAAL 129 HP 39,PO BOX 689 POTCHEFSTROOM 2520
14737,FERDINAND HARTZENBERG,DIAMONDS ALLUVIAL,OPENCAST,FERDINAND HARTZENBERG,(053) 963 1081,LICHTENBURG,NORTH-WEST,HOUTHAALBOOMEN 31 IP,PO BOX 1086 SCHWEIZER-RENEKE 2780
14549,FOURPRET DIAMONDS,DIAMONDS ALLUVIAL,OPENCAST,JAN HARMS BURGER,(053) 963 1081,SCHWEIZER - RENEKE,NORTH-WEST,VLEESCHKRAAL 145 HO,PO BOX 1086 SCHWEIZER-RENEKE 2780
15347,FRANCOIS PETRUS KRAFT - ELANDSFONTEIN,"AGGREGATE, SAND NATURAL",OPENCAST,FP KRAFT,822 555 664,LICHTENBURG,NORTH-WEST,ELANDSFONTEIN 34 IP 19 & 20,PO BOX 333 LICHTENBURG 2740
13898,FRANCOIS PETRUS KRAFT - ROOIPAN,DIAMONDS ALLUVIAL,OPENCAST,FRANCOIS PETRUS KRAFT,822 555 664,LICHTENBURG,NORTH-WEST,ROOIPAN 18 IP,PO BOX 333 LICHGTENBURG 2740
14061,FRANS MEYER,DIAMONDS ALLUVIAL,OPENCAST,FRANS JACOB MEYER,(053) 963 1081,SCHWEIZER - RENEKE,NORTH-WEST,LUSTFONTEIN 346 IP,PO BOX 1086 SCHWEIZER-RENEKE 2780
11708,G & W BASE - DWAALBOOM ATTAPULGITE MI,ATTAPULGITE,OPENCAST,ZIMCO GROUP,(011) 878 0343,RUSTENBURG,NORTH-WEST,"DWAALBOOM, ZUURVERDIEND 167 KP",PO BOX 14052 WADEVILLE 1422
15436,GANABO TRANSPORT & SERVICES,DIAMONDS ALLUVIAL,OPENCAST,KZ GANABO,835 996 720,SCHWEIZER - RENEKE,NORTH-WEST,VECHTVALLEI 122 HO 3,PO BOX 2127 SCHWEIZER-RENEKE 2780
15379,GCG CRUSHERS CC,"AGGREGATE, SAND NATURAL",OPENCAST,GCG CRUSHERS CC,(053) 963 1081,LICHTENBURG,NORTH-WEST,ELANDSFONTEIN 34 IP,PO BOX 1086 SCHWEIZER-RENEKE 2780
14162,GCT TRUST,DIAMONDS ALLUVIAL,OPENCAST,SH KEYSER,(053) 963 1081,SCHWEIZER - RENEKE,NORTH-WEST,BLOEMHEUVEL 327 HO,PO BOX 1086 SCHWEIZER-RENEKE 2780
14736,GENERAL NICE DEVELOPMENT SA (PTY) LTD,MANGANESE ORE,OPENCAST,DISTANT STAR TRADING 544 CC,(053) 963 1081,VENTERSDORP,NORTH-WEST,BUCHANSVALE 61 IQ,PO BOX 1086 SCHWEIZER-RENEKE 2780
14133,GERT VENTER,DIAMONDS ALLUVIAL,OPENCAST,GERT A VENTER,824 132 289,CHRISTIANA,NORTH-WEST,KLIPFONTEIN 344 HO,PO BOX 540 BLOEMHOF 2660
15174,GG VAN NIEKERK DELVERY,DIAMONDS ALLUVIAL,OPENCAST,GG VAN NIEKERK DELVERY,845 109 716,WOLMARANSSTAD,NORTH-WEST,VLAKFONTEIN 37 HP,PO BOX 618 WOLMARANSSTAD 2630
15408,GG VAN NIEKERK DELWERY,DIAMONDS ALLUVIAL,OPENCAST,JC MOOLMAN,829 263 752,WOLMARANSSTAD,NORTH-WEST,BLAAUWBOSCHKUIL 229 HO 8 & 13,PO BOX 107 WOLMARANSSTAD 2630
15416,GG VAN NIEKERK DELWERY,DIAMONDS ALLUVIAL,OPENCAST,JC MOOLMAN,829 263 752,WOLMARANSSTAD,NORTH-WEST,DOORNBULT 224 HO 3 & 4,PO BOX 107 WOLMARANSSTAD 2630
15389,GJ BESTER,DIAMONDS ALLUVIAL,OPENCAST,MULDER MINING INVESTMENTS,(053) 963 1081,SCHWEIZER - RENEKE,NORTH-WEST,GROOTLAAGTE 190 HO 1 & 11,PO BOX 1086 SCHWEIZER-RENEKE 2780
15207,GLOMIX 109,DIAMONDS ALLUVIAL,OPENCAST,W BOTHA,071 689 2845,SCHWEIZER - RENEKE,NORTH-WEST,ZANDFONTEIN 90 HO,PO BOX 902 SCHWEIZER RENEKE 2780
15200,GOLDEN DIAMOND FARMS,DIAMONDS ALLUVIAL,OPENCAST,WS OOSTHUIZEN,(018) 596 1562,WOLMARANSSTAD,NORTH-WEST,ZOUTPAN 212 HO,PO BOX 767 WOLMARANSSTAD 2630
14278,GOODYS MINING,DIAMONDS ALLUVIAL,OPENCAST,MODISAOTSILE GOODWIL TLATSANA,723 777 923,MMABATHO,NORTH-WEST,FARM 302 JO,PO BOX 222 MAFIKENG 2745
13817,GOUDSPEG ONTWIKKELAARS,DIMENSION STONE GRANITE,OPENCAST,GOUDSPEG ONTWIKKELAARS,(012) 256 5361,BRITS,NORTH-WEST,"HARTEBEESTPOORT B 410 JQ 1144, PTNS 124 125 143 146 609 & 972",PO BOX 2230 BRITS 0250
13971,GRAND PALACE TRADING 126 (PTY) LTD,DIMENSION STONE GRANITE,OPENCAST,GRAND PALACE TRADING 126 (PTY) LTD,082 804 5246,BRITS,NORTH-WEST,HARTEBEESTPOORT B 410 JQ 1219,PO BOX 894 BRITS 0250
15257,GRASPAN DELWERY,DIAMONDS ALLUVIAL,OPENCAST,NAMAKWA HOLDINGS,(053) 963 1108,SCHWEIZER - RENEKE,NORTH-WEST,LONDON 112 HO,38 THERESA STREET SCHWEIZER-RENEKE 2780
13946,GREAT CORMORANT INVESTMENTS 141 (PTY) LTD,DIMENSION STONE GRANITE,OPENCAST,GREAT CORMORANT INVESTMENTS 141 (PTY) LTD,(011) 285 0132,BRITS,NORTH-WEST,HARTEBEESPOORT B 410 JQ 1142,PO BOX 78465 SANTON 2146
15280,HARTEZER & STEYN BELEGGINGS,DIAMONDS ALLUVIAL,OPENCAST,HARTEZER & STEYN BELEGGINGS / BEKKER DELWERY CONTRACTOR,082 895 3516,VENTERSDORP,NORTH-WEST,ZWARTPLAAT,PO BOX 6499 FLAMWOOD 2570
14932,HEAVY FEATHER TRADING 22 CC,DIAMONDS ALLUVIAL,OPENCAST,HEAVY FEATHER TRADING 22 CC,083 390 2853,WOLMARANSSTAD,NORTH-WEST,DRIEFONTEIN 34 5 & 6,PO BOX 371 WOLMARANSSTAD 2630
10270,HELAM MINING (PTY) LTD,DIAMONDS KIMBERLITE,UNDERGROUND,PETRA DIAMONDS,(014) 544 6100,RUSTENBURG,NORTH-WEST,NOOITGEDACHT 381 JP,PO BOX 2 SWARTRUGGENS 2835
12701,HERNIC FERROCHOME (PTY) LTD,CHROME ORE,"OPENCAST, UNDERGROUND",HERNIC FERROCHROME (PTY) LTD,(012) 381 1100,BRITS,NORTH-WEST,"ELANDSKRAAL 469 JQ, DE KROON 444 JQ 103, WATERVAL 306 JQ, BOKFONTEIN 448 JQ, MAROELABULT",PO BOX 4534 BRITS 0250
13055,HERNIC FERROCHROME WORKS,CHROMIUM ALLOYS,SURFACE,HERNIC FERROCHROME (PTY) LTD,(012) 381 1100,BRITS,NORTH-WEST,DE KROON 444 JQ 103,PO BOX 4534 BRITS 0250
14411,HG DELWERY,DIAMONDS ALLUVIAL,OPENCAST,NKULU MINING CONTRACTOR,082 895 3516,LICHTENBURG,NORTH-WEST,BOSPAN 357 IO,PO BOX 6499 FLAMWOOD 2572
13585,HG ROHLANDT,DIAMONDS ALLUVIAL,OPENCAST,HG ROHLANDT,(053) 963 1081,CHRISTIANA,NORTH-WEST,AVONDSTER 142 HO,PO BOX 1086 SCHWEIZER-RENEKE 2780
15255,HIGHLY BLUE TRADING (PTY) LTD,DIMENSION STONE GRANITE,OPENCAST,MOSES BUTI MOLOI,878 150 180,BRITS,NORTH-WEST,"HARTEBEES 427 JQ VARIOUS, ROODEKOPJES OR ZWARTKOPJES 427 JQ VARIOUS",PO BOX 12473 TRAMSHED 0126
13945,HIROGEN MINE,DIAMONDS ALLUVIAL,OPENCAST,S MICHEAL AND GM SMITH,832 251 719,LICHTENBURG,NORTH-WEST,LA REYS STRYD 53 IO 2 3 & 4,PO BOX 783661 SANDTON 2146
13263,HORIZON CHROME MINE,CHROME ORE,"SURFACE, UNDERGROUND",GLENCORE MERAFE VENTURE,(014) 597 8047,MANKWE,NORTH-WEST,"RUIGHOEK 169 JP, VOGELSTRUISNEK 173 JP 169",PO BOX 310 KROONDAL 0350
15299,HPJ VILJOEN DELWERY - SITE 3,DIAMONDS ALLUVIAL,OPENCAST,HPJ VILJOEN,716 752 692,SCHWEIZER - RENEKE,NORTH-WEST,KAMEELKUIL 88 HO REM OF 3,PO BOX 893 SCHWEIZER RENEKE 2780
15000,HRI VAN DER MERWE - KLIPBANKFONTEIN,DIAMONDS ALLUVIAL,OPENCAST,HRI VAN DER MERWE,836 503 715,LICHTENBURG,NORTH-WEST,KLIPBANKFONTEIN 26 IP,PO BOX 3384 LICHTENBURG 2740
14366,IDADA TRADING,DIAMONDS ALLUVIAL,OPENCAST,OERSONKRAAL MINING CO (PTY) LTD,(053) 963 1081,WOLMARANSSTAD,NORTH-WEST,OERSONSKRAAL 250 HO,PO BOX 1086 SCHWEIZER RENEKE 2780
12110,IDWALA WITPOORT QUARRY,PYROPHYLLITE,OPENCAST,IDWALA INDUSTRIAL MINERALS,(011) 914 2600,LICHTENBURG,NORTH-WEST,WITPOORT 281 IP,PO BOX 6056 DUNSWART 1508
15017,IMPALA PLATINUM CHROME (PTY) LTD,CHROME ORE,OPENCAST,IMPALA PLATINUM CHROME (PTY) LTD,(014) 569 6770,RUSTENBURG,NORTH-WEST,BEERFONTEIN PHOKENG,PO BOX 5683 RUSTENBURG 0300
12434,IMPALA PLATINUM LTD,"PGM, GOLD, SILVER, CHROME ORE, COBALT METAL IC, COPPER, NICKEL, AMMONIUM SULPHATE, SULPHUR",UNDERGROUND,IMPALA PLATINUM HOLDINGS LTD,(014) 569 6720,RUSTENBURG,NORTH-WEST,"DOORNSPRUIT 106 JQ, VAALKOP 275 JQ, WILDEBEESFONTEIN 274 JQ",PO BOX 5863 RUSTENBURG 0300
11615,INTERNATIONAL FERRO METALS (SA) - MINE,CHROME ORE,UNDERGROUND,INTERNATIONAL FERRO METALS LTD,(014) 574 6500,BRITS,NORTH-WEST,BUFFELSFONTEIN 465 JQ 11 & 12,PO BOX 2223 MOOINOOI 0325
14419,INTERNATIONAL FERRO METALS (SA) - WORKS,CHROMIUM ALLOYS,SURFACE,INTERNATIONAL FERRO METALS LTD,(014) 574 6300,BRITS,NORTH-WEST,BUFFELSFONTEIN 465 JQ 11,PRIVATE BAG 2223 MOOINOOI 0325
15237,J & K STEYN TRUST,DIAMONDS ALLUVIAL,OPENCAST,PIETER ROUX & HENNIE JACOBS,845 893 783,WOLMARANSSTAD,NORTH-WEST,VLAKFONTEIN 37 HP,PO BOX 937 WOLMARANSSTAD 2630
14338,J SMIT,DIAMONDS ALLUVIAL,OPENCAST,J SMIT,(053) 963 1081,SCHWEIZER - RENEKE,NORTH-WEST,MOOIFONTEIN 140 HO,PO BOX 1086 SCHWEIZER RENEKE 2780
14367,J VAN WYK,DIAMONDS ALLUVIAL,OPENCAST,VISKA DELWERY CC,(053) 963 1081,CHRISTIANA,NORTH-WEST,"KAREEPAN 336 HO 1 3 4 5 7O, RENE 335 HO",PO BOX 1086 SCHWEIZER-RENEKE 2780
15401,JACKPOT DIAMONDS,DIAMONDS ALLUVIAL,OPENCAST,CALOCUBE (PTY) LTD,729 110 823,CHRISTIANA,NORTH-WEST,KLIPFONTEIN 344 HO 1,PO BOX 29567 DANHOF BLOEMFONTEIN  9310
13964,JACO GREYLING DELWERY,DIAMONDS ALLUVIAL,OPENCAST,MULTILAYER TRADING 282 CC,(053) 963 1081,SCHWEIZER - RENEKE,NORTH-WEST,KROMPAN 85 HO,PO BOX 1086 SCHWEIZER-RENEKE 2780
14982,JACOBUS ERNST POTGIETER,SAND NATURAL,OPENCAST,JACOBUS ERNST POTGIETER,(012) 262 0129,BRITS,NORTH-WEST,ROODEKOPJES 417 JQ PTNS,PO BOX 1618 BRITS 0250
14357,JB RHEEDER,DIAMONDS ALLUVIAL,OPENCAST,JB RHEEDER,(018) 597 4336,WOLMARANSSTAD,NORTH-WEST,RUSTKRAAL 129 HP 3 PTN OF 4,PO BOX 118 MAKWASSIE 2650
14745,JC KüHN,DIAMONDS ALLUVIAL,OPENCAST,JC KÜHN,(053) 963 1081,SCHWEIZER - RENEKE,NORTH-WEST,OERSONSKRAAL 250 HO,PO BOX 1086 SCHWEIZER-RENEKE 2780
15335,JC LUBBE,DIAMONDS ALLUVIAL,OPENCAST,JC LUBBE,834 980 170,WOLMARANSSTAD,NORTH-WEST,RUSTKRAAL 138 HP,PO BOX 12 MAKWASSIE 2650
13587,JG UYS,DIAMONDS ALLUVIAL,OPENCAST,DAL UYS,082 895 3516,WOLMARANSSTAD,NORTH-WEST,"ROOIBULT 152 HO, RIETKUIL 155 HO",PO BOX 6499 FLAMWOOD 2572
12698,JG UYS - ROODEPAN,DIAMONDS ALLUVIAL,OPENCAST,DAL UYS,082 895 3516,WOLMARANSSTAD,NORTH-WEST,ROODEPAN 163 HO,PO BOX 6499 FLAMWOOD 2572
15288,JJ OOSTHUIZEN DELWERY,DIAMONDS ALLUVIAL,OPENCAST,JOSEF J OOSTHUIZEN,837 355 244,WOLMARANSSTAD,NORTH-WEST,ROODEPAN 163 HO,PO BOX 6046 WOLMARANSSTAD 2630
15178,JJG KIRSTEN - GS SCHUTTE DOORNBULT BOERDERY,DIAMONDS ALLUVIAL,OPENCAST,JJG KIRSTEN,826 785 756,WOLMARANSSTAD,NORTH-WEST,DOORNBULT 224 HO,PO BOX 172 MAKWASSIE 2650
14210,JM VAN DER MERWE,DIAMONDS ALLUVIAL,OPENCAST,JM VAN DER MERWE,(053) 963 1081,SCHWEIZER - RENEKE,NORTH-WEST,DE HOOP 1098 HO,PO BOX 1086 SCHWEIZER-RENEKE 2780
14821,JM VAN DER MERWE - DRIEHOEK,DIAMONDS ALLUVIAL,OPENCAST,JM VAN DER MERWE,(053) 963 1081,SCHWEIZER - RENEKE,NORTH-WEST,"DE HOOP 198 HO, PTN DRIEHOEK",PO BOX 1086 SCHWEIZER-RENEKE 2780
14352,JODEO FOUR - PIENAARSFONTEIN,DIAMONDS ALLUVIAL,OPENCAST,JODEO FOUR (PTY) LTD,(053) 963 1081,SCHWEIZER - RENEKE,NORTH-WEST,PIENAARSFONTEIN 113 HO,PO BOX 1086 SCHWEIZER-RENEKE 2780
14354,JOEY FOURIE DELWERY (PTY) LTD,DIAMONDS ALLUVIAL,OPENCAST,JOEY FOURIE DELWERY (PTY) LTD,(053) 963 1081,SCHWEIZER - RENEKE,NORTH-WEST,HOUTVOLLOP 111 HO 2,PO BOX 1086 SCHWEIZER-RENEKE 2780
14353,JOHN CALLENDER EASBY,DIAMONDS ALLUVIAL,OPENCAST,JOHN CALLENDER EASBY,(053) 963 1081,SCHWEIZER - RENEKE,NORTH-WEST,SMITHSKRAAL 1519 HO,PO BOX 1086 SCHWEIZER RENEKE 2780
14464,JP KOEKEMOER - BIESIESLAAGTE,DIAMONDS ALLUVIAL,OPENCAST,PEET KOEKEMOER,082 895 3516,WOLMARANSSTAD,NORTH-WEST,BIESIESLAAGTE 397 IO REM,PO BOX 6499 FLAMWOOD 2570
14465,JP KOEKEMOER - WELVERDIEND,DIAMONDS ALLUVIAL,OPENCAST,JP KOEKEMOER - WELVERDIEND,(018) 468 4015,WOLMARANSSTAD,NORTH-WEST,WELVERDIEND 151 HO REM,PO BOX 249 WOLMARANDSSTAD 2526
15137,JVW DELWERY,DIAMONDS ALLUVIAL,OPENCAST,IGNATIUS FRANCOIS MARE,825 249 157,DELAREYVILLE,NORTH-WEST,"RONDEPAN 317 IO 4, ZANDVALEI 301 IO",PO BOX 636 SANNIESHOF 2650
13592,K POTGIETER,DIAMONDS ALLUVIAL,OPENCAST,K POTGIETER,,MMABATHO,NORTH-WEST,MOLOPO RATSHIDI 302 JO,PO BOX 7065 MMABATHO 2735
13065,KALAHARI GOLD RIDGE MINE,"GOLD, SILVER",OPENCAST,HARMONY GOLD MINING COMPANY LTD,(011) 332 1101,VRYBURG,NORTH-WEST,"FERNDALE 286 IO 11, GOLD RIDGE 295 IO, GOLDRIDGE 407 IO, NOTTINGHAM 299 IO, SPANOVER 284 IO 1 & 4",PO BOX 101 MAREETSANE 2715
13031,KALAKA MINING (PTY) LTD,"LIMESTONE, LIME",OPENCAST,KALAKA MINING (PTY) LTD,(011) 615 7684,MANKWE,NORTH-WEST,KRAALHOEK 399 KQ,POSTNET SUITE 350 PRIVATE BAG X30500 HOUGHTON  2041
14186,KELEDI JOINT VENTURE,DIMENSION STONE GRANITE,OPENCAST,KELGRAN INVESTMENTS (PTY) LTD,(012) 250 1970,RUSTENBURG,NORTH-WEST,BEESTKRAAL 290 1 2 3 & 10,PO BOX 616 BRITS 0250
12452,KELGRAN AFRICA (PTY) LTD - BAFOKENG,DIMENSION STONE GRANITE,OPENCAST,KELGRAN INVESTMENTS (PTY) LTD,(012) 250 1970,RUSTENBURG,NORTH-WEST,"BOSCHPOORT 284, KLIPGAT 281, TWEEDEPOORT 283 JQ",PO BOX 616 BRITS 0250
12430,KELGRAN AFRICA (PTY) LTD - RUSTENBURG,DIMENSION STONE GRANITE,OPENCAST,KELGRAN INVESTMENTS (PTY) LTD,(012) 250 1970,RUSTENBURG,NORTH-WEST,"BEESTEKRAAL 290 JQ 4 5 6 & 7, BOSCHPOORT 284 JQ 6, NOOITGEDACHT 289",PO BOX 616 BRITS 0250
14525,KHANYETSA CONSORTUIM,DIAMONDS ALLUVIAL,OPENCAST,CENTRAL HIGH TRADING 58,(053) 963 1081,CHRISTIANA,NORTH-WEST,MOOIFONTEIN 140 HO 2 & 14,PO BOX 1086 SCHWEIZER-RENEKE 2780
14606,KHUSELEKA MINE,"PGM, GOLD, CHROME ORE, COBALT METAL IC, COPPER, NICKEL, SODIUM SULPHATE, SULPHUR",UNDERGROUND,SIBANYE STILLWATER,(014) 598 3291,RUSTENBURG,NORTH-WEST,"BOSCHFONTEIN 268 JQ, RUSTENBURG TOWN & TOWNLANDS 272 JQ, PAARDEKRAAL 279 JQ",PO BOX 1 BLESKOP 0292
15304,KLEINBEGIN DELWERY CC,DIAMONDS ALLUVIAL,OPENCAST,AJ JONKER,082 572 1525,CHRISTIANA,NORTH-WEST,ZEVENFONTEIN 240 HO 8 OF 1 RE,PO BOX 9 BLOEMHOF 2660
13824,KLERKSDORP SUPERSAND EN STENE,"SAND NATURAL, AGGREGATE",OPENCAST,KLERKSDORP SUPERSAND EN STENE,(018) 464 4178,KLERKSDORP,NORTH-WEST,ROOIKUIL 362 IP SUB 24,PO BOX 1550 KLERKSDORP 2570
14442,KLOSSIESPAN,DIAMONDS ALLUVIAL,OPENCAST,J & S ZERWICK TRUST,(053) 441 3740,SCHWEIZER - RENEKE,NORTH-WEST,KLOSSIEPAN 279 HO,PO BOX 4 CHRISTIANA 2680
14593,KROKODILKRAAL SAND,SAND NATURAL,OPENCAST,KROKODILKRAAL TRANSPORT & SAND,(014) 785 0704,RUSTENBURG,NORTH-WEST,KROKODILKRAAL 545 KQ 3,PO BOX 7 KOEDOESKOP 0361
13204,KROONDAL MINE,"PGM, GOLD, COBALT METAL IC, COPPER, NICKEL, SULPHUR","OPENCAST, UNDERGROUND",SIBANYE PLATINUM,(014) 536 4118,RUSTENBURG,NORTH-WEST,KROONDAL 304 JQ,PO BOX 624 KROONDAL 0350
10192,KUSASALETHU,"GOLD, SILVER",UNDERGROUND,HARMONY GOLD MINING COMPANY LTD,(011) 411 2000,POTCHEFSTROOM,NORTH-WEST,"BUFFELSDOORN 143 IQ, ELANDSFONTEIN 114 IQ, ELANDSFONTEIN 115 IQ, ELANDSRAND 135 IQ",PO BOX 2 RANDFONTEIN 1760
13910,LAFARGE - TSWANA LIME LTD,"LIMESTONE, LIME",OPENCAST,LAFARGE SOUTH AFRICA,(018) 633 3032,DELAREYVILLE,NORTH-WEST,"DRIEFONTEIN 46 IO, POLFONTEIN 47 IO, RIETSCHRAAL 58 IO, SPRINGBOKPAN 58 JR, SPRINGBOKPAN 61 IO",PO BOX 188 LICHTENBURG 2740
10052,LAFARGE SOUTH AFRICA - LICHTENBURG,"LIMESTONE, LIME",OPENCAST,LAFARGE SOUTH AFRICA,(018) 633 3032,LICHTENBURG,NORTH-WEST,"LICHTENBURG TOWN & TOWNLANDS 22 IP, LOVEDALE 277 JU",PO BOX 188 LICHTENBURG 2740
10853,LANXESS CHROME MINING (PTY) LTD,CHROME ORE,UNDERGROUND,LANXESS CHROME MINING (PTY) LTD,(011) 457 4012,RUSTENBURG,NORTH-WEST,RIETFONTEIN 338 JQ,PO BOX 1161 EDENVALE 1610
15296,LEFIKA HARTEBEESPOORT MINING,"DIMENSION STONE GRANITE,",OPENCAST,NEW VENTURE MINING INVESTMENT HOLDIINGS (PTY) LTD,076 5768892,BRITS,NORTH-WEST,HARTEBEESTPOORT B 410 JQ 1127,PO BOX 8973 RUSTENBURG 0300
14392,LENONG MINING INVESTMENTS (PTY) LTD,DIMENSION STONE GRANITE,OPENCAST,LENONG MINING INVESTMENTS (PTY) LTD,(012) 252 0693,BRITS,NORTH-WEST,HARTEBEESPOORT B 400 JQ,PO BOX 1541 BRITS 0250
15198,LEOPARD LILLY TRADING,DIAMONDS ALLUVIAL,OPENCAST,HS BADENHORST,083 274 8541,CHRISTIANA,NORTH-WEST,SWARTLAAGTE,PO BOX 713 BLOEMHOF 2660
11408,LESAKA CRUSHERS,"AGGREGATE, SAND NATURAL",OPENCAST,JH MARX,(014) 593 4322,RUSTENBURG,NORTH-WEST,"PAARDEKRAAL 279 JQ, TOWNLANDS",POSTNET SUITE 4078 PRIVATE BAG X82323 RUSTENBURG  0300
15360,LEVUSHKA (PTY) LTD,DIAMONDS ALLUVIAL,OPENCAST,PAPAVANGELO TRADING 26 (PTY) LTD,(053) 963 1081,CHRISTIANA,NORTH-WEST,"CAWOODS HOPE 324 HO, GOEDEHOOP 331 HO",PO BOX 1086 SCHWEIZER-RENEKE 2780
10759,LIEBENBERG LEIGROEWE,DIMENSION STONE SLATE,OPENCAST,LIEBENBERG LEIGROEWE,(011) 955 2098,RUSTENBURG,NORTH-WEST,"RIETFONTEIN 453 JP, ROSMINCOL 442 JP",PO BOX 97 KOSTER 0348
15214,LM MOLOI ENGINEERING CC,DIMENSION STONE GRANITE,OPENCAST,LM MOLOI ENGINEERING CC,(012) 252 0499,BRITS,NORTH-WEST,ROODEKOPJES 427 JQ VARIOUS,PO BOX 3069 BRITS 0250
13007,LONG MEADOW BRICK CO,SHALE BRICKMAKING,OPENCAST,LONG MEADOW BRICK CO (PTY) LTD,(012) 376 2839,BRITS,NORTH-WEST,"RIETFONTEIN 485 JQ 485 JQ 160, 176",PO BOX 301 IFAFI 0260
14115,LONMIN PLATINUM - MARIKANA MINING,"PGM, GOLD, COBALT METAL IC, COPPER, NICKEL, SULPHUR","OPENCAST, UNDERGROUND",LONMIN PLATINUM,(014) 571 2000,BRITS,NORTH-WEST,"BOSCHFONTEIN 458 JQ, ELANDSDRIFT 467 JQ, ELANDSKRAAL 469 JQ, KAFFERSKRAAL 342 JQ, KAREEPOORT 407 JQ, MIDDELKRAAL 466 JQ, MODDERSPRUIT 461 JQ",PRIVATE BAG 508 MARIKANA 0284
14116,LONMIN PLATINUM - SHARED BUSINESS SERVICES,"PGM, GOLD, COBALT METAL IC, COPPER, NICKEL, SULPHUR",SURFACE,LONMIN PLATINUM,(014) 571 2000,RUSTENBURG,NORTH-WEST,"BOSCHFONTEIN 458 JQ, ELANDSDRIFT 467 JQ, ELANDSKRAAL 469 JQ, KAFFERSKRAAL 342 JQ, MIDDELKRAAL 446 JQ, MODDERSPRUIT 461 JQ, KAREEPOORT 407 JQ",PRIVATE BAG 508 MARIKANA 0284
12328,LONMIN PLATINUM PROCESS DIVISION,"PGM, GOLD, COBALT METAL IC, COPPER, NICKEL, SULPHUR",SURFACE,LONMIN PLATINUM,(014) 571 2000,RUSTENBURG,NORTH-WEST,"MIDDELKRAAL 466 JQ, BOSCHFONTEIN 458 JQ, ELANDSDRIFT 467 JQ, KAFFERSKRAAL 342 JQ, KAREEPOORT 407 JQ, ELANDSKRAAL 469 JQ, MODDERSPRUIT 461 JQ",PRIVATE BAG 508 MARIKANA 0284
13408,LOVEDALE,"LIMESTONE, LIME",OPENCAST,OOS-TVL KALKVERSKAFFERS (EDMS) BPK,(018) 464 7820,LICHTENBURG,NORTH-WEST,ELANDSFONTEIN 34 38,PO BOX 31 KLERKSDORP 2570
13868,M NEL BOERDERY,DIAMONDS ANY,OPENCAST,MARIUS NEL,(018) 431 0560,CHRISTIANA,NORTH-WEST,MOOIFONTEIN 140 HO,PO BOX 06 HARTEBEESFONTEIN 2600
15236,MAFEKING CEMENT (PTY) LTD,LIMESTONE,OPENCAST,ARM CEMENT LTD,(011) 450 2591,LICHTENBURG,NORTH-WEST,"MOOIMEISJESFONTEIN 118 JO VARIOUS, VERGENOEG 45 IO PTN, WELVERDIEND 45 IO, DE HOOP 60 IO VARIOUS, SCHOONGEZICHT 42 IO VARIOUS, MOOILAAGTE 41 IO PTN",PO BOX 3116 BEDFORDVIEW 2008
14947,MAFIKENG CLAY ( FORMERLY MOLOPO BRICKS),"CLAY BRICKMAKING, SHALE BRICKMAKING",OPENCAST,MOLOPO BRICKS,(018) 292 1615,MMABATHO,NORTH-WEST,RATSHIDI 302 JO,PO BOX 588 POTCHEFSTROOM 2531
14098,MAJENG MINING (PTY) LTD,DIMENSION STONE GRANITE,OPENCAST,EAGLE GRANITE (PTY) LTD,(011) 803 3910,BRITS,NORTH-WEST,HARTEBEESTPOORT B 410 JQ 1123,PO BOX 6194 RIVONIA 2128
14381,MALAN BOERDERY,DIAMONDS ALLUVIAL,OPENCAST,JOHAN MALAN,083 417 6741,WOLMARANSSTAD,NORTH-WEST,VOGELSTRUISKUIL 400 IO VARIOUS,PO BOX 322 WOLMARANSSTAD 2680
11764,MARGARET WATER COMPANY NPC,"AGGREGATE, SAND NATURAL",OPENCAST,MARGARET WATER COMPANY NPC,(018) 484 4202,KLERKSDORP,NORTH-WEST,STILFONTEIN 408 IP F,PO BOX 1 STILLFONTEIN 2550
10387,MARICO CHROME CORP (PTY) LTD,CHROME ORE,OPENCAST,VERREF - VERENIGING REFRACTORIES (PTY) LTD,(018) 350 9906,MADIKWE,NORTH-WEST,"ALLEWYNSPOORT 29 JP, DRIEKOP 14 JP, GOUDINI 30 JP 2 & 3, STRYDFONTEIN 125 JP A",PO BOX 117 VEREENIGING 1930
14481,MARICO SLATE (PTY) LTD,DIMENSION STONE SLATE,OPENCAST,MARICO SLATE (PTY) LTD,071 361 7732,MADIKWE,NORTH-WEST,"BROEKMANSFONTEIN 294 JP 8 & 18, KLIPBANKFONTEIN 8",PO BOX 347 KOSTER 0348
11235,MARICO-MYN,"LIMESTONE, LIME",OPENCAST,OOS-TVL KALKVERSKAFFERS (EDMS) BPK,(018) 464 7820,MADIKWE,NORTH-WEST,RHENOSTERFONTEIN 304 JP,PO BOX 31 KLERKSDORP 2570
13459,MARIKANA - BRITS,DIMENSION STONE GRANITE,OPENCAST,EAGLE GRANITE (PTY) LTD,(011) 803 3910,BRITS,NORTH-WEST,"HARTEBEESTPOORT 410 JQ 410 JQ 1176, 1183",PO BOX 6194 RIVONIA 2128
13545,MARIKANA PLATINUM MINE,"PGM, GOLD, COBALT METAL IC, COPPER, NICKEL, SULPHUR",OPENCAST,SIBANYE PLATINUM,(014) 536 4118,RUSTENBURG,NORTH-WEST,SPRUITFONTEIN ROAD N4 HIGHWAY MARIKANA,PO BOX 795 MARIKANA 0284
12759,MARLIN GRANITE RUSTENBURG (PTY) LTD - KUDU GRANITE RUSTENBURG DIVISION,DIMENSION STONE GRANITE,OPENCAST,KUDU GRANITE - RUSTENBUG DIVISION,(012) 252 7798,RUSTENBURG,NORTH-WEST,"VLAKFONTEIN 276 JQ PTN, FARM 283 JQ, BERSEBA 397 IQ, BOSCHPOORT 284 JQ, MARIKANA VARIOUS, MINACO 8 & 12, NELLS 18, NOOITGEDACHT 287 JQ, ELANDSHEUVEL, SCHAAPKRAAL 292 JQ, SPRINGBOK 3, TWEEDEFONTEIN VARIOUS, WONDERKOP 400 JQ 1 & 2, FARM 282 JQ",PO BOX 4664 BRITS 0250
14289,MARTHINUS HOLTZHOUSEN ROOS,SAND NATURAL,OPENCAST,MARTHINUS HOLTZHOUSEN ROOS,(018) 642 1246,MADIKWE,NORTH-WEST,"DOORNRIVIER 99 JP, HEUNINGBOOM 99 JP",PO BOX 1554 ZEERUST 2865
14591,MARX DELWERY,DIAMONDS ALLUVIAL,OPENCAST,BJ KANES,079 365 0869,WOLMARANSSTAD,NORTH-WEST,"SYFERFONTEIN 2 HP 17, PALMIETFONTEIN 312 HP 2 3 6 9",PO BOX 206 WOLMARANSSTAD 2630
15211,MASAKE MINING,DIMENSION STONE GRANITE,OPENCAST,MASAKE MINING,082 669 4159,BRITS,NORTH-WEST,"HARTEBEESPOORT 419 JQ 1003 C, ROODEKOPJES 417 JQ 833 & 175",PO BOX 5075 PLATINUM MALL BRITS  0250
14379,MAT ROUX & SONS DIAMOND MINING (PTY) LTD,"AGGREGATE, DIAMONDS ALLUVIAL, SAND NATURAL",OPENCAST,MAT ROUX AND SONS DIAMOND MINING (PTY) LTD,(018) 632 9398,LICHTENBURG,NORTH-WEST,UITGEVONDEN 355 JP 9,PO BOX 3280 LICHTENBURG 2740
14703,MATAYO DIAMOND MINE,DIAMONDS ALLUVIAL,OPENCAST,MATAYO TRADING 7 (PTY) LTD,(053) 953 0108,VRYBURG,NORTH-WEST,GRASPAN 773,PO BOX 13509 SINOVILLE 0129
13641,MATUTU CLAY MINING (PTY) LTD,ATTAPULGITE,OPENCAST,MATUTU ABSORBENTS (PTY) LTD,(011) 478 0923,RUSTENBURG,NORTH-WEST,PUTSFONTEIN,PO BOX 4965 CRESTA 2118
14979,MAXIMA SILICA (PTY) LTD,SILICA,OPENCAST,MAXIMA HOLDINGS,087 941 2589,RUSTENBURG,NORTH-WEST,"BULTFONTEIN 259 JQ 3 OF 1, PTN BOSHOEK 1",PO BOX 245 BOSHOEK NORTH WEST  0301
14277,MC BARNARDT DELWERY,DIAMONDS ALLUVIAL,OPENCAST,MC BARNARDT,729 960 368,VRYBURG,NORTH-WEST,"BERNAUW 674 IN 56, CONSTANTIA",VOORTREKKER STREET 2 LEEUDORINGSTAD 2640
14199,MEDE DIAMANTE - KATDOORNKRAAL,DIAMONDS ALLUVIAL,OPENCAST,DU TOIT & BOTHA BOERDERY,082 610 7241,WOLMARANSSTAD,NORTH-WEST,KATDOORNKRAAL 249 HO,PO BOX 636 WOLMARANSSTAD 2630
14349,MEONDO TRADING 72 (PTY) LTD,DIAMONDS ALLUVIAL,OPENCAST,MEONDO TRADING 72 (PTY) LTD,(053) 963 1081,SCHWEIZER - RENEKE,NORTH-WEST,GANSPAN 194 HO 1,PO BOX 1086 SCHWEIZER-RENEKE 2780
13559,MERAFE FERROCHROME & MINING (PTY) LTD,CHROMIUM ALLOYS,SURFACE,GLENCORE MERAFE VENTURE,(014) 573 1211,RUSTENBURG,NORTH-WEST,"BOSHOEK, RUSTENBURG 205 KP",PRIVATE BAG X4011 BOSHOEK 0301
10525,METMIN (PTY) LTD,MANGANESE ORE,OPENCAST,OBNOSIS (PTY) LTD,(011) 805 4662,VENTERSDORP,NORTH-WEST,"BRANDVLEI 261 IQ, ELANDSFONTEIN 277 IQ, LUIPAARDSVLEI 243 IQ, RYEDALE, WATERVAL 174 IQ",POSBUS 1205 HALFWAY HOUSE MIDRAND  1685
15419,MIERKATDORST TRUST DELWERY,DIAMONDS ALLUVIAL,OPENCAST,JAN ALBERT BARNARD,078 412 6246,LICHTENBURG,NORTH-WEST,TWEE BUFFELS GESCHIET 42 IP,PO BOX 265 COLINY 2725
13860,MIRAMAR TRADING,DIAMONDS ALLUVIAL,OPENCAST,MIRAMAR TRADING 57 CC,(053) 963 1081,SCHWEIZER - RENEKE,NORTH-WEST,MAHEMPANNEN 217 HO,PO BOX 1086 SCHWEIZER-RENEKE 2780
15170,MODDERKRAAL MP 67/2003,DIAMONDS ALLUVIAL,OPENCAST,DODECA DIAMANTE (EDMS) BPK,(018) 293 3875,WOLMARANSSTAD,NORTH-WEST,MODDERKRAAL 51 HP VARIOUS PT,PO BOX 6754 BAILIE PARK POTCHEFSTROOM  2526
15131,MOETI DELWERY,DIAMONDS ALLUVIAL,OPENCAST,GE MOETI,(053) 963 1081,WOLMARANSSTAD,NORTH-WEST,DOORNBULT 224 HO,PO BOX 1086 SCHWEIZER-RENEKE 2780
14509,MONROE MINING TRADING (PTY) LTD,DIAMONDS ALLUVIAL,OPENCAST,MONROE MINING TRADING (PTY) LTD,(053) 963 1108,SCHWEIZER - RENEKE,NORTH-WEST,LONDON 112 HO VARIOUS,PO BOX 93 SCHWEIZER-RENEKE 2780
11636,MOOINOOI STONE CRUSHERS CC,"AGGREGATE, SAND NATURAL",OPENCAST,MOOINOOI STONE CRUSHERS CC,(014) 533 0790,RUSTENBURG,NORTH-WEST,MIDDELKRAAL 466 JQ,POSTNET SUITE 900 PRIVATE BAG X82329 RUSTENBURG  0300
14942,MORENA SE TJELELE,DIAMONDS ALLUVIAL,OPENCAST,MSE TJELELE,074 712 1265,LICHTENBURG,NORTH-WEST,KLIPKUIL 352 JP 21,PO BOX 2852 VEREENIGING 1930
14138,MR COOPERATION (PTY) LTD,DIAMONDS ALLUVIAL,OPENCAST,SONOP DELWERY,(053) 562 0041,CHRISTIANA,NORTH-WEST,KROMELLENBOOG 320 HO,PO BOX 21 DELPORTSHOOP 8377
15002,MS BASSON DELWERY,DIAMONDS ALLUVIAL,OPENCAST,SAAISAND LANDGOED BK,(053) 963 1081,DELAREYVILLE,NORTH-WEST,ZANDVALEI 301 IO,PO BOX 1086 SCHWEIZER-RENEKE 2780
14805,MULDER MINING INVESTMENTS (PTY) LTD - PIENAARSFONTEIN,DIAMONDS ALLUVIAL,OPENCAST,MULDER MINING INVESTMENTS (PTY) LTD,(053) 963 1081,SCHWEIZER - RENEKE,NORTH-WEST,PIENAARSFONTEIN 113 HO,PO BOX 1086 SCHWEIZER-RENEKE 2780
14462,MULRO DIAMONDS (PTY) LTD,DIAMONDS ALLUVIAL,OPENCAST,MULRO DIAMONDS (PTY) LTD,(053) 963 2008,SCHWEIZER - RENEKE,NORTH-WEST,BOTHASHOEK 141 HO,PO BOX 1086 SCHWEIZER-RENEKE 2780
14388,MZ HAMID,DIAMONDS ALLUVIAL,OPENCAST,C & C DELWERY,(018) 468 5355,LICHTENBURG,NORTH-WEST,DOORNKUIL 354 IO,PO BOX 6499 FLAMWOOD 2572
14430,N HAMID - GANSPAN,DIAMONDS ALLUVIAL,OPENCAST,N HAMID - GANSPAN,(018) 468 5355,LICHTENBURG,NORTH-WEST,GANSPAN 351 IO,PO BOX 649 FLAMWOOD KLERKSDORP  2572
15266,NET NOG EENETJIE (PTY) LTD,DIAMONDS ALLUVIAL,OPENCAST,CENTRAL NODE (PTY) LTD,(053) 963 1081,SCHWEIZER - RENEKE,NORTH-WEST,DIAMANDTFONTEIN 220 HO 1,PO BOX 1081 SCHWEIZER-RENEKE 2780
15295,NICOLOR (PTY) LTD,"GOLD, SILVER",UNDERGROUND,VILLAGE MAIN REEF,(018) 473 7303,KLERKSDORP,NORTH-WEST,HARTEBEESTFONTEIN 422 IP,PRIVATE BAG X800 STILFONTEIN 2550
14633,NICUS DELWERY - LONDON,DIAMONDS ALLUVIAL,OPENCAST,MONROE MINING (PTY) LTD,(053) 963 1081,SCHWEIZER - RENEKE,NORTH-WEST,LONDON 112 HO,PO BOX 1086 SCHWEIZER-RENEKE 2780
14684,NIRVANA CRUSHERS CC,"AGGREGATE, SAND NATURAL",OPENCAST,NIVANA CRUSHERS CC,(053) 963 2446,SCHWEIZER - RENEKE,NORTH-WEST,"MIMOSA 61 6, NIRVANA 9",PO BOX 705 SCHWEIZER-RENEKE 2780
12089,NOORDKAAP STEENWERKE,"CLAY BRICKMAKING, SHALE BRICKMAKING",OPENCAST,NOORDKAAP STEENWERKE BK,(053) 983 0136,VRYBURG,NORTH-WEST,"BIESJES BULT 549 3 10 18&36, CHWAING 548 9 & 14, STELLA MUNICIPALITY",PO BOX 272 STELLA 8650
14522,NOORDWES DELWERY BK - DROOGPAN,DIAMONDS ALLUVIAL,OPENCAST,GOTHOMA DIGGINGS CC,(014) 549 3910,VENTERSDORP,NORTH-WEST,DROOGPAN 178 IP REM EXT,PO BOX 20576 NOORDBRUG 2522
14342,NOORDWES DELWERY BK - KLIPGAT,DIAMONDS ALLUVIAL,OPENCAST,NOORDWES DELWERY BK,(053) 963 1081,VENTERSDORP,NORTH-WEST,KLIPGAT 18 IS 1 & 2,PO BOX 1086 SCHWEIZER RENEKE 2780
14343,NOORDWES DELWERY BK - VARKENSKRAAL,DIAMONDS ALLUVIAL,OPENCAST,NOORDWES DELWERY BK,(053) 963 1081,VENTERSDORP,NORTH-WEST,VARKENSKRAAL 93 IQ 5 & 22 REM,PO BOX 1086 SCHWEIZER RENEKE 2780
15317,NOORDWES DELWERY CC - ZWARTPLAAT,DIAMONDS ALLUVIAL,OPENCAST,H BASSON (CONTRACTOR - F & J DELWERYE),082 808 1850,VENTERSDORP,NORTH-WEST,ZWARTPLAAT 170 IP 3 7,PO BOX 20576 NOORDBRUG POTCHEFSTROOM  2522
15383,NOORDWES SAND,SAND NATURAL,OPENCAST,JOHN ROOS,846 213 674,KLERKSDORP,NORTH-WEST,KAFFIR RIVIER 252,RAILWAY 3 KLERK INDUSTRIA KLERKSDORP  2571
13859,OERSONSKRAAL MINING (PTY) LTD,DIAMONDS ALLUVIAL,OPENCAST,OERSONSKRAAL MINING (PTY) LTD,(053) 963 1108,SCHWEIZER - RENEKE,NORTH-WEST,OERSONSKRAAL 250 HO,PO BOX 93 SCHWEIZER-RENEKE 2780
12997,OMNIA METROLOGY (PTY) LTD,PHOSPHORIC ACID,SURFACE,OMNIA FERTILIZER LTD,(011) 709 8888,RUSTENBURG,NORTH-WEST,,PO BOX 69888 BRYANSTON 2021
11077,OMV STILFONTEIN,"AGGREGATE, SAND NATURAL",OPENCAST,OSCAR GOUDRIAAN,(018) 484 4388,KLERKSDORP,NORTH-WEST,"HARTEBEESFONTEIN 422 IP, STILFONTEIN 408 IP",PO BOX 823 STILFONTEIN 2550
13740,PANFONTEIN DELWERY,DIAMONDS ALLUVIAL,OPENCAST,GPJ GROBBELAAR,(057) 353 4413,CHRISTIANA,NORTH-WEST,MORGENROODT,PO BOX 586 WELKOM 9460
13780,PAPAVANGELO TRADING 26 (PTY) LTD,DIAMONDS ALLUVIAL,OPENCAST,SONOP DELWERY,(053) 562 0041,CHRISTIANA,NORTH-WEST,WITGATBOOM 317,PO BOX 21 DELPORTSHOOP 8377
15144,PB LAAS,DIAMONDS ALLUVIAL,OPENCAST,PB LAAS,(053) 963 1081,SCHWEIZER - RENEKE,NORTH-WEST,BOSMANSFONTEIN 330 HO 5,PO BOX 1081 SCHWEIZER-RENEKE 2780
14155,PCB DIAMANTE,DIAMONDS ALLUVIAL,OPENCAST,HILGARDT KAIRUZ,(053) 963 1081,SCHWEIZER - RENEKE,NORTH-WEST,GANSPAN 194 HO,PO BOX 1086 SCHWEIZER RENEKE 2780
13866,PCS DIAMANTE,DIAMONDS ALLUVIAL,OPENCAST,MORNING DEW TRADING 97 (PTY) LTD,(053) 963 1081,SCHWEIZER - RENEKE,NORTH-WEST,MAHEMPANNEN 217 HO,PO BOX 1086 SCHWEIZER-RENEKE 2780
11597,PERING MINE,ZINC METAL IC,OPENCAST,PERING BASE METALS (PTY) LTD,(011) 484 2240,VRYBURG,NORTH-WEST,PERING 1022,POSNET SUITE 253 PRIVATE BAG X30500 HOUGHTON  2041
15418,PERITEX,DIAMONDS ALLUVIAL,OPENCAST,SUMMER SEASON TRADING 64,(053) 963 2900,CHRISTIANA,NORTH-WEST,UITSPANNING 318 HO 4,PO BOX 309 SCHWEIZER-RENEKE 2780
15446,PERITEX,DIAMONDS ALLUVIAL,OPENCAST,MOLATUDI MG,(053) 963 2900,CHRISTIANA,NORTH-WEST,BUITENZORG,PO BOX 309 SCHWEIZER-RENEKE 2780
15354,PETER DEALE,DIAMONDS ALLUVIAL,OPENCAST,SH BARKHUIZEN,(053) 963 1081,SCHWEIZER - RENEKE,NORTH-WEST,DIEWEDRAAI 100 HO VARIOUS,PO BOX 1086 SCHWEIZER-RENEKE 2780
14265,PGL BOERDERY - SCHOONZIGHT,DIAMONDS ALLUVIAL,OPENCAST,PGL BOERDERY (PTY) LTD,(053) 963 1081,CHRISTIANA,NORTH-WEST,SCHOONZIGHT 237 HO 13,PO BOX 1086 SCHWEIZER-RENEKE 2780
14583,PGM RESOURCES HOLDINGS (PTY) LTD,DIMENSION STONE GRANITE,OPENCAST,PGM RESOURCES HOLDINGS (PTY) LTD,(011) 392 6701,RUSTENBURG,NORTH-WEST,BEESTEKRAAL 290 JQ 9,PO BOX 1255 ISANDO 1600
14113,PHARATLHATLE SMALL MINING CC,DIAMONDS ALLUVIAL,OPENCAST,PHARATLHATLHE SMALL MINING CC,(053) 963 1081,CHRISTIANA,NORTH-WEST,CHRISTIANA TOWN AND TOWNLANDS 325 HO,PO BOX 960 SCHWEIZER-RENEKE 2780
13745,PHEPENG MINING (PTY) LTD,DIMENSION STONE GRANITE,OPENCAST,PHEPENG MINING (PTY) LTD,082 882 9168,BRITS,NORTH-WEST,HARTEBEESPOORT B 410 JQ 1222,PO BOX 106 VORENTOE 0259
14950,PHOENIX PLATINUM MINING (PTY) LTD,"PGM, GOLD",SURFACE,PAN AFRICAN RESOURCES PIC,082 800 9273,BRITS,NORTH-WEST,RIETFONTEIN 465 JQ,THE FIRS OFFICE 101 FIRST FLOOR CNR CRADOCK & BIERMANN AVE ROSEBANK 2196
15409,PIENAAR MINES,DIAMONDS ALLUVIAL,OPENCAST,CJ PIENAAR,762 211 178,LICHTENBURG,NORTH-WEST,UITGEVONDEN 355 JP,PO BOX 1092 LICHTENBURG 2740
15142,PIETER STEYN TRUST DELWERY,DIAMONDS ALLUVIAL,OPENCAST,PIETER STEYN,832 621 841,WOLMARANSSTAD,NORTH-WEST,WOLMARANSSTAD TOWN AND TOWNLANDS 184 HO,PO BOX 257 WOLMARANSSTAD 2630
14409,PILANESBERG PLATINUM MINES (PTY) LTD,"PGM, GOLD, COBALT METAL IC, COPPER, NICKEL, SULPHUR",OPENCAST,SEDIBELO PLATINUM MINES LTD,082 871 2387,MANKWE,NORTH-WEST,"BAKHOUTRANTJE 205 JP, GROENFONTEIN 138 JP, PALMIETFONTEIN 208 JP, ROODERAND 46 JP, RUIGHOEK 169 JP, TUSCHENKOMST 135 JP, VOGELSTRUISRIVER 173 JP, WITKLEIFONTEIN 136 JP, ZANDSPRUIT 168 JP",PRIVATE BAX X11 HIGHVELD 0067
15193,PJ DE BEER,DIAMONDS ALLUVIAL,OPENCAST,JOHAN DE BEER,082 676 2587,WOLMARANSSTAD,NORTH-WEST,DOORNFONTEIN 313 IP,PO BOX 6499 FLAMWOOD 2570
14274,PJC PRETORIUS & SEUN,DIAMONDS ALLUVIAL,OPENCAST,FREDERICK FRANCOIS DEYSEL,(053) 963 1081,CHRISTIANA,NORTH-WEST,VUURFONTEIN 117 HO 1 5 9 10,PO BOX 1086 SCHWEIZER-RENEKE 2780
14814,PLATCRO MINERALS,CHROME ORE,OPENCAST,CHEMSTOF (PTY) LTD,082 809 8415,BRITS,NORTH-WEST,BOKFONTEIN 448 JQ,PO BOX 20761 PROTEA PARK 0305
14939,PLATINUM SCHOOL OF MINES,"PGM, GOLD, COBALT METAL IC, COPPER, NICKEL, SULPHUR",UNDERGROUND,ANGLO PLATINUM RUSTENBURG,(014) 598 1106,RUSTENBURG,NORTH-WEST,"BRAKSPRUIT 299 JQ, HOEDSPRUIT 298 JQ",PO BOX 8208 RUSTENBURG 0300
10515,PPC - SLURRY QUARRY,"LIMESTONE, LIME, SHALE FOR CEMENT",OPENCAST,PRETORIA PORTLAND CEMENT CO LTD,(018) 644 8100,MADIKWE,NORTH-WEST,"KLIPPLAAT 108 JO, OLIEVENDRAAI 107 JO, RIETVALLEI 102 JO, SLURRY 96 JO",PO BOX 7 SLURRY 2895
10512,PPC CEMENT SA (PTY) LTD - BEESTEKRAAL QUARRY,"LIMESTONE, LIME",OPENCAST,PPC CEMENT SA (PTY) LTD,(012) 377 7300,BRITS,NORTH-WEST,"BORDER 187 JQ, KALKLAAGTE 213 JQ, ROOINEK 190 JQ, VOGELFONTEIN 191 JQ",PRIVATE BAG X5044 BRITS 0250
13807,PRATLEY DIAMOND MINING COMPANY CC,DIAMONDS ALLUVIAL,OPENCAST,GREENCREST MINING,(011) 955 2190,VENTERSDORP,NORTH-WEST,WELGEVONDEN 167 IP,PO BOX 3055 KENMARE 1745
14769,PRAXOS 604 CC (PTY) LTD,DIAMONDS ALLUVIAL,OPENCAST,PRAXOS 604 CC (PTY) LTD,(053) 963 1081,CHRISTIANA,NORTH-WEST,"BRUSSELS 736 HN, DRIEPOORT 664 HN, DWAARSRIVIER 741 HN, GROOTKLOOF 737 HN, JACOBS VAL 817 HN, KROMKLOOF 738 HN, LISBON 739 HN, TAKWANEN NATIVE RESERVE 662 HN, VENTERS DWAAK 717 HN, WILLOUGHBY 744 HN",PO BOX 1086 SCHWEIZER-RENEKE 2780
13083,PRECIOUS METALS REFINERS,"PGM, GOLD, COBALT METAL IC, COPPER, NICKEL, SULPHUR",SURFACE,ANGLO PLATINUM LTD,(014) 567 9424,RUSTENBURG,NORTH-WEST,"KLIPFONTEIN 300 JQ, BLESKOP 4",PO BOX 331 KROONDAL 0350
14410,PS LOMBARD,DIAMONDS ALLUVIAL,OPENCAST,JALIN BOERDERY (EDMS) BPK,(053) 963 1081,WOLMARANSSTAD,NORTH-WEST,KAMEELBULT 162 HO,PO BOX 1086 SCHWEIZER-RENEKE 2780
14317,RANGE VIEW TRADING 1010 (PTY) LTD,DIAMONDS ALLUVIAL,OPENCAST,RANGE VIEW TRADING 1010 (PTY) LTD,(053) 963 1081,CHRISTIANA,NORTH-WEST,VECHTVALLEI 122 HO,PO BOX 1086 SCHWEIZER RENEKE 2780
10405,RED GRANITI SA (PTY) LTD,DIMENSION STONE GRANITE,OPENCAST,SOUNDPROPS 192 (PTY) LTD,(012) 348 4195,RUSTENBURG,NORTH-WEST,"BOSCHPOORT 284 JQ 9, SCHAAPKRAAL",PO BOX 245 MENLYN 0063
15206,REIVILO DELWERY,DIAMONDS ALLUVIAL,OPENCAST,MONROE MINING (PTY) LTD,(053) 963 1081,SCHWEIZER - RENEKE,NORTH-WEST,LONDON 112 HO RE,PO BOX 1086 SCHWEIZER-RENEKE 2780
15454,RF DE VILLIERS,DIAMONDS ALLUVIAL,OPENCAST,RF DE VILLIERS,079 401 9912,DELAREYVILLE,NORTH-WEST,TWEEBOSCH 318 HO,PO BOX 67 SUNNYSHOF 2760
12667,RHOVAN PSV,"VANADIUM ALLOYS, VANADIUM CHEMICALS",SURFACE,GLENCORE INTERNATIONAL AG,(012) 318 0750,GA-RANKUWA,NORTH-WEST,"BARSEBA 397, LOSPERFONTEIN 405, WAAIKRAAL 396",PO BOX 3620 BRITS 0250
14773,RIETPUT DELWERY - KOPPIE ALLEEN,DIAMONDS ALLUVIAL,OPENCAST,CINLO BK,(053) 963 1081,SCHWEIZER - RENEKE,NORTH-WEST,KOPPIE ALLEEN 221 HO,PO BOX 1086 SCHWEIZER-RENEKE 2780
13982,RIETPUT DELWERY CC - BIESIESLAAGTE,DIAMONDS ALLUVIAL,OPENCAST,RIETPUT DELWERY CC,(053) 963 1081,SCHWEIZER - RENEKE,NORTH-WEST,BIESIESLAAGTE 53 HO,PO BOX 1086 SCHWEIZER-RENEKE 2780
13751,RIETVLY,SILICA,OPENCAST,GLENCORE MERAFE VENTURE,(014) 590 2363,RUSTENBURG,NORTH-WEST,RIETVLY 271 JQ 93,PO BOX 310 KROONDAL 0350
14424,RIVER QUEEN TRADING 194 - GANSPAN,DIAMONDS ALLUVIAL,OPENCAST,RIVER QUEEN TRADING 194 CC,(053) 963 1081,SCHWEIZER - RENEKE,NORTH-WEST,GANSPAN 194 HO RE OF 3,PO BOX 1086 SCHWEIZER-RENEKE 2780
10153,ROLFES SILICA,SILICA,OPENCAST,ROLFES SILICA,(012) 258 9912,BRITS,NORTH-WEST,ZANDFONTEIN 447 JQ 95,PO BOX 1451 BRITS 0250
14544,ROODERAND CHROME MINE - PILANESBERG MINING CO,CHROME ORE,"OPENCAST, SURFACE",CHROMETCO LTD,(012) 667 1919,MANKWE,NORTH-WEST,ROODERAND 46 JQ 2 & RE,THE GREENS OFFICE PARK SPARREBOSCH BLDG CHARLES DE GAULLE CRESCENT HIGHVELD PARK 2055
15361,ROOIBULT,DIAMONDS ALLUVIAL,OPENCAST,GERT CHRISPARUS KNOETZE,793 650 869,WOLMARANSSTAD,NORTH-WEST,ROOIBULT 152 HO 5,PO BOX 206 WOLMARANSTAD 2630
11444,RPM - WATERVAL SMELTER,"PGM, GOLD, COBALT METAL IC, COPPER, NICKEL, SULPHUR",SURFACE,ANGLO PLATINUM LTD,(014) 591 5001,RUSTENBURG,NORTH-WEST,"FARM 303 JQ, WATERVAL 307 JQ",PO BOX 404 KROONDAL 0350
14890,RPM - WATERVAL SMELTER - ACP,PGM,SURFACE,ANGLO PLATINUM LTD,(014) 591 5004,RUSTENBURG,NORTH-WEST,WATERVAL 303 JQ,PO BOX 404 KROONDAL 0350
10548,RUIGHOEK CHROME MINE,CHROME ORE,"OPENCAST, UNDERGROUND",BATLHAKO MINING LIMITED,(014) 513 1010,MANKWE,NORTH-WEST,RUIGHOEK 169 JP,PO BOX 5 BOSHOEK 0301
11226,RUSTENBURG BASE METALS REFINERY (PTY) LTD,"PGM, GOLD, COBALT METAL IC, COPPER, NICKEL, SULPHUR",SURFACE,ANGLO PLATINUM LTD,(014) 596 4034,RUSTENBURG,NORTH-WEST,WATERVAL 303 JQ,PO BOX 483 RUSTENBURG 0300
14643,RUSTENBURG CONCENTRATORS,"PGM, GOLD, COBALT METAL IC, COPPER, NICKEL, SULPHUR",SURFACE,SIBANYE PLATINUM LTD,(014) 598 2261,RUSTENBURG,NORTH-WEST,"FRANK SHAFTS 1 & 2, WATERVAL COMPLEX",PO BOX 8208 RUSTENBURG 0300
10079,RUSTENBURG MINERALS DEV CO (PTY) LTD,CHROME ORE,OPENCAST,AFRICAN MINING & TRUST CO LTD,(011) 770 6800,MANKWE,NORTH-WEST,"GROENFONTEIN 138 JP, VOGELSTRUISNEK, ZANDSPRUIT",PRIVATE BAG X03 NORTHLANDS 2196
12040,RUSTENBURG SANDWERKE,SAND NATURAL,OPENCAST,APJ ELS,(014) 534 0529,RUSTENBURG,NORTH-WEST,RHENOSTERFONTEIN 336 JQ,PO BOX 671 KROONDAL 0350
12221,RUSTENBURG SMELTERS,CHROMIUM ALLOYS,SURFACE,GLENCORE,(014) 572 0000,RUSTENBURG,NORTH-WEST,INDUSTRIAL AREA VANADIUM STR,PRIVATE BAG X82325 RUSTENBURG 0300
14273,SAAIMAN DIAMOND MINING TRUST,DIAMONDS ALLUVIAL,OPENCAST,HP SAAIMAN,083 254 3756,CHRISTIANA,NORTH-WEST,SWARTLAAGTE 749 LS,PO BOX 124 BLOEMHOF 2660
14150,SANDRIVIER,SAND NATURAL,OPENCAST,LL KLOPPER,(014) 772 1578,RUSTENBURG,NORTH-WEST,KLIPGAT 348 KQ,PO BOX 245 THABAZIMBI 0380
15165,SEPHAKU DEVELOPMENT,LIMESTONE,OPENCAST,SEPHAKU HOLDINGS LTD,(018) 633 4400,LICHTENBURG,NORTH-WEST,"KLEIN WESTERFORD 78 IO REM, VERDWAAL 57 IO 2 & REM, STIGLINGSPAN 73 IO",PRIVATE BAG 12058 LICHTENBURG 2740
13311,SHIVA URANIUM LIMITED,"URANIUM, GOLD, SILVER","OPENCAST, UNDERGROUND",SHIVA URANIUM  LIMITED,(018) 467 9000,KLERKSDORP,NORTH-WEST,RIETKUIL 397 IP,PO BOX 20 HARTEBEESFONTEIN 2600
14610,SIBANYE RUSTENBURG PLATINUM MINE - CENTRAL SERVICES,"PGM, GOLD, COBALT METAL IC, COPPER, NICKEL, SULPHUR",SURFACE,SIBANYE PLATINUM,(014) 598 5560,RUSTENBURG,NORTH-WEST,KLIPFONTEIN 300 JQ,PO BOX 1 BLESKOP 0300
14470,SILVER RUBY TRADING 87 (PTY) LTD,DIAMONDS ALLUVIAL,OPENCAST,KARDELKOR,(011) 674 1300,WOLMARANSSTAD,NORTH-WEST,"LEEUWBOSCH 44 HP 33, SYFERGAT 56 HP",PO BOX 6097 WESTGATE 1734
15132,SINO ROCK (PTY) LTD,PYROPHYLLITE,OPENCAST,JIN SUN,828 882 899,LICHTENBURG,NORTH-WEST,DRIEKUIL 280 IP 6,PO BOX 792 UMHLANGA ROCKS 4320
14607,SIPHUMELELE 1 MINE,"PGM, GOLD, COBALT METAL IC, COPPER, NICKEL, SULPHUR",UNDERGROUND,SIBANYE PLATINUM RUSTENBURG,(014) 598 1606,RUSTENBURG,NORTH-WEST,"BLESKOP SHAFT, BRAKSPRUIT 299 JQ, TURFFONTEIN 302 JQ, SIPHUMELELE CENTRAL",PO BOX 1 BLESKOP 0292
15303,SJ NEL,DIAMONDS ALLUVIAL,OPENCAST,SJ NEL,082 926 5298,CHRISTIANA,NORTH-WEST,ZWARTLAAGTE 345 HO VARIOUS,PO BOX 67 BLOEMHOF 2660
15240,SJ NEZAR DELWERY,DIAMONDS ALLUVIAL,OPENCAST,SJ NEZAR,083 306 0124,WOLMARANSSTAD,NORTH-WEST,DOORNFONTEIN 313 IP,PO BOX 243 OTTOSDAL 2610
15256,SKD DELWERY - AVONDSTER,DIAMONDS ALLUVIAL,OPENCAST,SEAL A DEAL 18 CC,(053) 963 2900,SCHWEIZER - RENEKE,NORTH-WEST,AVONDSTER 142 HO PTNS,PO BOX 1086 SCHWEIZER-RENEKE 2780
14804,SKY CHROME MINING (PTY) LTD,CHROME ORE,OPENCAST,INTERNATIONAL FERRO METALS LTD,(014) 574 6500,BRITS,NORTH-WEST,"BOSCHFONTEIN 458 JQ, KAFFERSKRAAL 469 JQ, KAREEPOORT 407 JQ, MODDERSPRUIT 461 JQ",PRIVATE BAG 2223 MOOINOOI 0325
15426,SLATELLO MINE CC,DIMENSION STONE SLATE,OPENCAST,SLATELLO MINE CC,(053) 963 1081,MADIKWE,NORTH-WEST,GROOTFONTEIN 319 JP 2,PO BOX 1086 SCHWEIZER-RENEKE 2780
14978,SOPHIA MORAPEDI - GROOTFONTEIN,DIAMONDS ALLUVIAL,OPENCAST,KETSHOGILE SOPHIA MORAPEDI,073 501 9203,LICHTENBURG,NORTH-WEST,GRASFONTEIN 356 JP 4,15 PARYS STREET SOUTH HILLS 2197
15176,SOUTH EAST NODE (PTY) LTD (2),DIAMONDS ALLUVIAL,OPENCAST,SOUTH EAST NODE (PTY) LTD,(053) 963 1081,SCHWEIZER - RENEKE,NORTH-WEST,OERSONSKRAAL 250 HO VARIOUS,PO BOX 1086 SCHWEIZER-RENEKE 2780
15375,SPARKEL MINING,DIAMONDS ALLUVIAL,OPENCAST,PEET LOMBARD,832 893 645,WOLMARANSSTAD,NORTH-WEST,KAREEBOOM 228,22 OTTO STREET WITKOPPIES KLERKSDORP  2570
15417,SPARKEL MINING,DIAMONDS ALLUVIAL,OPENCAST,SPARKEL MINING,832 893 645,CHRISTIANA,NORTH-WEST,KAREEPAN 336 HO,OTTO STREET 22 WITKOPPIES 2571
14310,STELLITE CHROME MINE,CHROME ORE,OPENCAST,ILITHA MINING (PTY) LTD,(012) 668 3800,RUSTENBURG,NORTH-WEST,STELLITE 255 JQ,PO BOX 11368 CENTURION 0046
12803,STERKFONTEIN CRUSHERS (PTY) LTD,"AGGREGATE, SAND NATURAL",OPENCAST,STERKFONTEIN CRUSHERS (PTY) LTD,(011) 954 3108,RUSTENBURG,NORTH-WEST,BULTFONTEIN 295 JQ 1,PO BOX 363 KRUGERSDORP 1740
15179,STEYN DELWERY TRUST,DIAMONDS ALLUVIAL,OPENCAST,L STEYN,082 452 6172,LICHTENBURG,NORTH-WEST,LA REY STRYD 53 IQ,51 7TH AVENUE LICHTENBURG 2740
14881,STYLDRIFT,"PGM, GOLD, COBALT METAL IC, COPPER, NICKEL, SULPHUR",UNDERGROUND,ROYAL BAFOKENG PLATINUM,(014) 153 0010,RUSTENBURG,NORTH-WEST,STYLDRIFT 90 JQ,PRIVATE BAG X82313 RUSTENBURG 0300
11426,SUNPROP THIRTEEN CC T/A CHIMERA DIAMANTE,DIAMONDS ALLUVIAL,OPENCAST,HARTZER & STEYN CC,828 264 710,VENTERSDORP,NORTH-WEST,ZWARTPLAAT 170 IP 1 & 2,PO BOX 595 ST FRANCIS BAY 6312
15181,SWANEPOEL DELWERY,DIAMONDS ALLUVIAL,OPENCAST,C SWANEPOEL,083 557 9731,WOLMARANSSTAD,NORTH-WEST,WEBB 159 HO,PO BOX 319 WOLMARANSSTAD 2630
15435,SYFERGAT DELWERY - KAALPAN,DIAMONDS ALLUVIAL,OPENCAST,JFN BADERHORST,082 273 4136,CHRISTIANA,NORTH-WEST,KAALPAN 337 HO 8,PO BOX 352 WOLMARANSSTAD 2630
15434,SYFERGAT DELWERY - WELTEVREDEN,DIAMONDS ALLUVIAL,OPENCAST,JFN BADENHORST,082 273 4136,CHRISTIANA,NORTH-WEST,WELTEVREDEN 268 HO,PO BOX 352 WOLMARANSSTAD 2630
14985,SYFERGAT DELWERY CC,DIAMONDS ALLUVIAL,OPENCAST,NIC BADENHORST,083 273 4136,WOLMARANSSTAD,NORTH-WEST,SYFERGAT 204 HO PTNS,PO BOX 6499 FLAMWOOD 2570
15294,TAU LEKOA GOLD MINING CO (PTY) LTD,"GOLD, SILVER",UNDERGROUND,VILLAGE MAIN REEF,(018) 473 7303,KLERKSDORP,NORTH-WEST,GOEDGENOEG 433 IP,PRIVATE BAG X800 STILFONTEIN 2550
15287,TAU PELE CONSTRUCTION (PTY) LTD,AGGREGATE,OPENCAST,TAU PELE CONSTRUCTION (PTY) LTD,(053) 963 1081,VRYBURG,NORTH-WEST,BRANDWAGT 728,PO BOX 1086 SCHWEIZER-RENEKE 2780
14125,TERRA GRANITE,DIMENSION STONE GRANITE,"OPENCAST, SURFACE",TERRA GRANITE M SMIT,(011) 705 1788,BRITS,NORTH-WEST,ROODEKOPJES 417 JQ 904,PO BOX 3444 BRITS 0250
15460,TERRAPAN MASJIENERIE,DIAMONDS ALLUVIAL,OPERATING,TURNOVER TRADING 251 (PTY) LTD,(053) 963 1081,LICHTENBURG,NORTH-WEST,"STERKFONTEIN 155 IP, PUTFONTEIN 62 IP, OMEGA 478 IP",PO BOX 1086 SCHWEIZER-RENEKE 2780
15393,THABO GAELEBALE MINERAL RESOURCES (PTY) LTD,CHROME ORE,OPENCAST,GUMTREE INVESTMENTS,(014) 592 6677,BRITS,NORTH-WEST,ZANDFONTEIN 923 JQ RE,PO BOX 8941 RUSTENBURG 0300
14572,THARISA MINE,"CHROME ORE, GOLD, PGM, COBALT METAL IC, COPPER, NICKEL, SULPHUR",OPENCAST,THARISA MINERALS (PTY) LTD,(014) 572 0705,RUSTENBURG,NORTH-WEST,"SPRUITFONTEIN 341 JQ, KAFFERSKRAAL 342 JQ",POSTNET SUITE 473 PRIVATE BAX X51 BRYANSTON  2021
14609,THEMBELANI MINE (NEW),"PGM, GOLD, CHROME ORE, COBALT METAL IC, COPPER, NICKEL, SODIUM SULPHATE, SULPHUR",UNDERGROUND,ANGLO PLATINUM RUSTENBURG,(014) 598 3775,RUSTENBURG,NORTH-WEST,PAARDEKRAAL 279 JQ,PO BOX 1 BLESKOP 0300
14921,THEMBI JOYCE MACHUMBYE,DIAMONDS ALLUVIAL,OPENCAST,MASARA-MOGALE TRADING & PROJECTS,767 355 936,LICHTENBURG,NORTH-WEST,KLIPKUIL 352 JP 21,33 BLOMBOS STREET BIRCH ACRES EXT 6 KEMPTONPARK  1620
14803,THREE DIAMONDS TRADING 429 (PTY) LTD,DIAMONDS ALLUVIAL,OPENCAST,THREE DIAMONDS TRADING 429 (PTY) LTD,(053) 963 1081,WOLMARANSSTAD,NORTH-WEST,VAALBOSCHFONTEIN 188 HO,PO BOX 1086 SCHWEIZER-RENEKE 2780
13322,TRAVRYKA STENE,CLAY BRICKMAKING,OPENCAST,JH STRONKHORST (EDMS) BPK,(053) 441 2054,CHRISTIANA,NORTH-WEST,CHRISTIANA COMMONAGE PTN 16,PO BOX 106 CHRISTIANA 2680
15171,TREKDRIFT PROTOKOL 301/2006,DIAMONDS ALLUVIAL,OPENCAST,IJ ROODT,(018) 293 3875,LICHTENBURG,NORTH-WEST,TREKDRIFT 360 JP RE,PO BOX 6754 BAILIE PARK POTCHEFSTROOM  2526
10069,TRG TRADING (PTY) LTD,DIMENSION STONE GRANITE,OPENCAST,TRG TRADING (PTY) LTD,829 009 477,BRITS,NORTH-WEST,"HARTEBEESPOORT B 410 JQ VARIOUS, ROODEKOPJES 417 JQ PTN OF 328",PO BOX 1675 FOURWAYS 2055
14974,TRIPLE S DELWERY,DIAMONDS ALLUVIAL,OPENCAST,GERARD STROEBEL,844 031 997,SCHWEIZER - RENEKE,NORTH-WEST,MIMOSA 61 HO 22,PO BOX 520 SCHWEIZER-RENEKE 2780
14750,TRUSTEES OF THE HELEEN ZERWICK TRUST,DIAMONDS ALLUVIAL,OPENCAST,TRUSTEES OF THE HELEEN ZERWICK TRUST,(053) 963 1081,CHRISTIANA,NORTH-WEST,"HONI-SOIT-QUIMAL-Y-PENSE 275 HO 3, KAMEELPAN 276 HO 7",PO BOX 1086 SCHWEIZER-RENEKE 2780
13956,TWEE BUFFELS GESCHIET PROTOCOL NO 945/2014,DIAMONDS ALLUVIAL,OPENCAST,DODECA DIAMANTE (EDMS) BPK,(018) 293 3875,LICHTENBURG,NORTH-WEST,TWEE BUFFELS GESCHIET 42 IP PTNS,PO BOX 6754 POTCHEFSTROOM 2526
14886,UG2,CHROME ORE,SURFACE,GLENCORE MERAFE VENTURE,(014) 590 2363,RUSTENBURG,NORTH-WEST,"WATERVAL 304 JQ, ELANDSFONTEIN 440 JQ, VAALKOP 275 JQ",PO BOX 310 KROONDAL 0350
10670,VAAL RIVER OPERATIONS,"GOLD, SILVER, URANIUM",UNDERGROUND,ANGLOGOLD ASHANTI LTD,(018) 700 2104,KLERKSDORP,NORTH-WEST,"CRYSTALKOP(OFS) 69, DIE HOEK(OFS) 114, DOORNKOM(OFS) WEST OOST 447, GOEDGENOEG 433 IP, GROOTVADERS BOSCH(OFS) 470, KANANA 426 IP, MODDERFONTEIN 440 IP, NOOITGEDACHT 434 IP, ORKNEY 437 IP, VAALKOP 439 IP, WITKOP 438 IP, ZUIPING(OFS) 394, DOORNKOM(OFS) WEST 466",PO BOX 8044 WESTERN LEVELS 2501
10673,VAAL RIVER SALT WORKS LTD,SALT,OPENCAST,VAAL RIVER SALT WORKS LTD,(053) 441 3911,CHRISTIANA,NORTH-WEST,ZOUTPAN 301 HO,PO BOX 165 BLOEMHOF 2660
14695,VAALBOSCHFONTEIN,"AGGREGATE, SAND NATURAL",OPENCAST,SANRAL NORTHERN REGION,(021) 976 1110,WOLMARANSSTAD,NORTH-WEST,VAALBOSCHFONTEIN 205 HO,PRIVATE BAG X3 DURBANVILLE 7551
14348,VAALBRASS FOUNDRY (PTY) LTD,DIAMONDS ALLUVIAL,OPENCAST,SONOP DELWERY,(053) 562 0041,CHRISTIANA,NORTH-WEST,KAREEFONTEIN,PO BOX 21 DELPORTSHOOP 8377
14796,VAALRIVIER SANDWERKE - GOEDEHOOP,"AGGREGATE, SAND NATURAL",OPENCAST,JH APPELGRYN,076 020 9965,CHRISTIANA,NORTH-WEST,GOEDE HOOP 331 HO,PO BOX 251 CHRISTIANA 2680
15185,VAN WYK DELWERY SITE 1,DIAMONDS ALLUVIAL,OPENCAST,JJ VAN WYK,(018) 596 2689,CHRISTIANA,NORTH-WEST,KAREEPAN 210 HO EXT OF 1,PO BOX 552 WOLMARANSSTAD 2630
15186,VAN WYK DELWERY SITE 2,DIAMONDS ALLUVIAL,OPENCAST,JJ VAN WYK,(018) 596 2689,CHRISTIANA,NORTH-WEST,OLIEVENFONTEIN 114 HO 5 7 8,PO BOX 552 WOLMARANSSTAD 2630
15188,VAN WYK DELWERY SITE 4,DIAMONDS ALLUVIAL,OPENCAST,JJ VAN WYK,(018) 596 2689,WOLMARANSSTAD,NORTH-WEST,KLIPKUIL 65 HO RE OF 9,PO BOX 552 WOLMARANSSTAD 2630
15272,VAN WYK DELWERY SITE 5,DIAMONDS ALLUVIAL,OPENCAST,JJ VAN WYK,(018) 596 2689,CHRISTIANA,NORTH-WEST,KAREEPOORT 210 HO REM EXT,PO BOX 552 WOLMARANSSTAD 2630
14229,VAN ZYL BROERS OERSON - SYFERGAT,DIAMONDS ALLUVIAL,OPENCAST,VAN ZYL BROERS OERSON - SYFERGAT,(053) 963 1081,SCHWEIZER - RENEKE,NORTH-WEST,SYFERGAT 237 HO,PO BOX 1086 SCHWEIZER-RENEKE 2780
13867,VAN ZYL BROERS OERSONSKRAAL CC,DIAMONDS ALLUVIAL,OPENCAST,VAN ZYL BROERS OERSONSKRAAL CC,(053) 963 1081,WOLMARANSSTAD,NORTH-WEST,OERSONSKRAAL 207 HO,PO BOX 1086 SCHWEIZER-RENEKE 2780
15213,VERSATEX TRADING 500 (PTY) LTD,DIMENSION STONE GRANITE,OPENCAST,VERSATEX TRADING 500 (PTY) LTD,(012) 252 0499,RUSTENBURG,NORTH-WEST,"BOSCHPOORT 284 JQ VARIOUS, NOOITGEDACHT 2",PO BOX 3069 BRITS 0250
15442,VOORSLAG DELWERY,DIAMONDS ALLUVIAL,OPENCAST,WAP PUTTER,(053) 963 1081,SCHWEIZER - RENEKE,NORTH-WEST,HOUTVOLOP 111 HO,PO BOX 1086 SCHWEIZER-RENEKE 2780
15447,VOORSLAG DELWERY,DIAMONDS ALLUVIAL,OPENCAST,WAP PUTTER,(053) 963 1081,SCHWEIZER - RENEKE,NORTH-WEST,HOUTVOLOP 111 HO,PO BOX 1086 SCHWEIZER-RENEKE 2780
14597,VRYBURG CRUSHERS CC,"AGGREGATE, SAND NATURAL",OPENCAST,8 MILE INVESTMENTS 169 (PTY) LTD,(053) 963 1081,VRYBURG,NORTH-WEST,WELGELEGEN 677 IN,PO BOX 1086 SCHWEIZER-RENEKE 2780
13907,VSS MINING AND MINERALS,DIAMONDS ALLUVIAL,OPENCAST,TRUSTEES OF THE JOEY FOURIE TRUST,(053) 963 1081,SCHWEIZER - RENEKE,NORTH-WEST,MIMOSA 61 HO 5 & 27,PO BOX 1086 SCHWEIZER-RENEKE 2780
15291,VYFSTER DELWERY BK,DIAMONDS ALLUVIAL,OPENCAST,HARTZER & STEYN BELEGGINGS CC,082 417 6648,VENTERSDORP,NORTH-WEST,ZWARTPLAAT 170 IP,2 JILL STREET FLAMWOOD KLERKSDORP  2572
14235,W & P TRUST,DIAMONDS ALLUVIAL,OPENCAST,W & P TRUST,(053) 963 1081,CHRISTIANA,NORTH-WEST,ZEVENFONTEIN 240 HO,PO BOX 1086 SCHWEIZER-RENEKE 2780
13985,W CARSTENS,DIAMONDS ALLUVIAL,OPENCAST,W CARSTENS,(018) 596 1974,WOLMARANSSTAD,NORTH-WEST,VOGELSTRUISKUIL 400 IO 2,PO BOX 138 WOLMARANSSTAD 2630
12581,WATERVAL CHROME,CHROME ORE,"SURFACE, UNDERGROUND",GLENCORE MERAFE VENTURE,(014) 597 8047,RUSTENBURG,NORTH-WEST,WATERVAL 306 JQ 27,PO BOX 310 KROONDAL 0350
14991,WBJV PROJECT 1 - MASEVE,"PGM, GOLD, COBALT METAL IC, COPPER, NICKEL, SULPHUR",UNDERGROUND,MASEVE INVESTMENTS / PGM,(011) 782 2186,RUSTENBURG,NORTH-WEST,"ELANDSFONTEIN 102 JQ 2, FRISCHGEWAAGD 96 JQ PTNS",POSTNET SUITE 81 PRIVATE BAG X12 ROOSEVELDT PARK  2193
15350,WEDGE EXPLORATION,DIAMONDS ALLUVIAL,OPENCAST,WEDGE EXPLORATION,825 786 245,LICHTENBURG,NORTH-WEST,"STERKFONTEIN 155 IP VARIOUS, TWEE BUFFELS GESCHIET 42 IP 10 & 50, HOUTKOP 153 IP",PO BOX 9503 EDLEEN 1625
12891,WESTERN CHROME MINES,CHROME ORE,"SURFACE, UNDERGROUND",KERMAS,(014) 574 6000,BRITS,NORTH-WEST,"BUFFELSFONTEIN 465 JQ, ELANDSDRIFT 467 JQ, ELANDSKRAAL 469 JQ, WATERKLOOF 305 JQ",PO BOX 245 MOOINOOI 0325
14642,WESTERN LIMB TAILINGS RETREATMENT PLANT,"PGM, GOLD, COBALT METAL IC, COPPER, NICKEL, SULPHUR",SURFACE,ANGLO PLATINUM LTD,(014) 598 3409,RUSTENBURG,NORTH-WEST,,PO BOX 8208 RUSTENBURG 0300
15247,WESVAAL DELWERY - LUCASKRAAL,DIAMONDS ALLUVIAL,OPENCAST,GC KNOETZE,(053) 963 1081,WOLMARANSSTAD,NORTH-WEST,LUCASKRAAL 154 HO,PO BOX 1086 SCHWEIZER-RENEKE 2780
15209,WESVAAL DELWERY TRUST,DIAMONDS ALLUVIAL,OPENCAST,GC KNOETZE,(018) 596 2886,WOLMARANSSTAD,NORTH-WEST,UITKYK,PO BOX 390 WOLMARANSSTAD 2630
15282,WH MARX,DIAMONDS ALLUVIAL,OPENCAST,WH MARX,082 895 3516,WOLMARANSSTAD,NORTH-WEST,BRAKPAN,PO BOX 6499 FLAMWOOD 2570
15279,WILLEM BESTER TRUST,DIAMONDS ALLUVIAL,OPENCAST,WILLEM BESTER TRUST / BADEN DELWERY CONTRACTOR,082 895 3516,WOLMARANSSTAD,NORTH-WEST,"BOSCHRAND, BLINKKLIP",PO BOX 6499 FLAMWOOD 2570
15138,WILLIE KUHN MINERALE,DIAMONDS ALLUVIAL,OPENCAST,CPJ KUHN,082 856 0489,WOLMARANSSTAD,NORTH-WEST,BLAAUWBOSCHKUIL 229 HO,POSBUS 943 WOLMARANSSTAD 2630
10731,WITKOP FLUORSPAR MINE (PTY) LTD,"FLUORSPAR, LIMESTONE, AGGREGATE",OPENCAST,SALLIES LTD,074 170 4908,MADIKWE,NORTH-WEST,"WINTERSHOEK 303 JP, WITKOP 302 JP",PRIVATE BAG X1315 ZEERUST 2865
14552,WITPOORT BOTHA FAMILIE TRUST,"SAND NATURAL, AGGREGATE",OPENCAST,RIAAN BOTHA,(018) 264 3493,VENTERSDORP,NORTH-WEST,WITPOORT 231 IP,PO BOX 106 VENTERSDORP 2710
14826,WJ GROBBELAAR,DIAMONDS ALLUVIAL,OPENCAST,WJ GROBBELAAR,(018) 468 5355,WOLMARANSSTAD,NORTH-WEST,VOGELSTRUISKUIL 400 IO,PO BOX 6499 FLAMWOOD 2572
15197,WJ WESSELS - KAALPAN,DIAMONDS ALLUVIAL,OPENCAST,WJ WESSELS,082 416 0275,CHRISTIANA,NORTH-WEST,KAALPAN 337 HO,PO BOX 2122  WILROPARK 1731
15196,WONDERKOP BENEFICIATION,CHROME ORE,SURFACE,GLENCORE MERAFE VENTURE,(014) 597 8047,RUSTENBURG,NORTH-WEST,WONDERKOP MARIKANA ROAD,PO BOX 310 KROONDAL 0350
13216,WONDERKOP SMELTERS,CHROMIUM ALLOYS,SURFACE,GLENCORE,(014) 572 0000,RUSTENBURG,NORTH-WEST,,PRIVATE BAG X82325 RUSTENBURG 0300
10736,WONDERSTONE LTD,PYROPHYLLITE,OPENCAST,ASSORE LTD,(018) 571 0076,LICHTENBURG,NORTH-WEST,GESTOPTEFONTEIN 349 IO,PO BOX 10 OTTOSDAL 2610
12720,WOODSTOCK SANDWERKE (EDMS) BPK,SAND NATURAL,OPENCAST,WOODSTOCK SANDWERKE (EDMS) BPK,(014) 538 0311,RUSTENBURG,NORTH-WEST,WOODSTOCK 397 JP 39,PO BOX 177 RUSTENBURG 0300
10748,XSTRATA - KROONDAL MINE,CHROME ORE,UNDERGROUND,GLENCORE MERAFE VENTURE,(014) 597 8047,RUSTENBURG,NORTH-WEST,"KROONDAL 304 JQ, RUIGHOEK 169 JP, VOGELSTRUISNEK 173 JP, WATERVAL 306 JQ",PO BOX 310 KROONDAL 0350
14808,ZANDFONTEIN DELWERY,DIAMONDS ALLUVIAL,OPENCAST,OCEANSIDE TRADING 139 CC,(053) 963 1081,SCHWEIZER - RENEKE,NORTH-WEST,MIMOSA 61 HO,PO BOX 1086 SCHWEIZER-RENEKE 2780
10740,ZEERUST CHROME MINES,CHROME ORE,OPENCAST,ASSORE,(011) 770 6819,MADIKWE,NORTH-WEST,"(KANAAN), TURFBULT 10 JP 2 3 4 5 &8",PRIVATE BAG X03 NORTHLANDS 2196
